{"type": "FeatureCollection", "features": [{"type": "Feature", "properties": {"code": "27615", "dep": "Chocó", "mun": "Riosucio", "pob2024": 63383, "pob2025": 64544, "pob2026": 65641, "pobcab": 16168, "pobres": 47215, "viv": 12605, "ppv": 2.84, "lat": 7.3444, "lng": -77.1758, "sev": "sindato", "sevf": "inferido", "dens": 8.3, "vivPrec": 0.031}, "geometry": {"type": "Polygon", "coordinates": [[[-77.1795, 7.9568], [-77.1187, 7.9203], [-77.101, 7.9241], [-77.0832, 7.9005], [-77.0942, 7.8779], [-77.0747, 7.8474], [-77.0986, 7.8235], [-77.126, 7.8302], [-77.1221, 7.788], [-76.9601, 7.6398], [-76.9436, 7.5892], [-76.801, 7.5717], [-76.6619, 7.4492], [-76.6187, 7.3162], [-76.579, 7.3042], [-76.5304, 7.255], [-76.4842, 7.1329], [-76.5072, 7.1395], [-76.5251, 7.1058], [-76.5853, 7.1365], [-76.645, 7.2072], [-76.6421, 7.2266], [-76.6693, 7.2371], [-76.6603, 7.2513], [-76.7616, 7.3138], [-76.8398, 7.2949], [-76.8544, 7.2286], [-76.8769, 7.2101], [-76.8859, 7.2118], [-76.9016, 7.2945], [-77.0053, 7.2855], [-76.9974, 7.2509], [-77.1115, 7.1904], [-77.0818, 7.1629], [-77.0949, 7.1455], [-77.1452, 7.1288], [-77.181, 7.0851], [-77.1949, 7.1077], [-77.2617, 7.0814], [-77.2699, 7.0539], [-77.303, 7.0344], [-77.3023, 7.0137], [-77.4163, 6.9241], [-77.4008, 6.9065], [-77.4049, 6.8723], [-77.3703, 6.8667], [-77.3531, 6.8447], [-77.3624, 6.8086], [-77.458, 6.8232], [-77.4944, 6.7694], [-77.4868, 6.7493], [-77.5053, 6.753], [-77.5237, 6.7246], [-77.5395, 6.7277], [-77.5366, 6.8462], [-77.5916, 6.9281], [-77.5609, 6.9948], [-77.6025, 7.0974], [-77.6032, 7.153], [-77.5856, 7.1736], [-77.6014, 7.2052], [-77.6683, 7.2218], [-77.6814, 7.2765], [-77.7014, 7.2865], [-77.7347, 7.3726], [-77.7379, 7.4363], [-77.7133, 7.4387], [-77.6999, 7.4606], [-77.7112, 7.4991], [-77.7007, 7.5065], [-77.7468, 7.6054], [-77.7429, 7.6789], [-77.7282, 7.6958], [-77.6979, 7.6931], [-77.6468, 7.6527], [-77.6067, 7.5407], [-77.5635, 7.5073], [-77.5245, 7.5718], [-77.4892, 7.5695], [-77.4702, 7.6515], [-77.4426, 7.6568], [-77.3912, 7.7599], [-77.3394, 7.766], [-77.3686, 7.8283], [-77.3372, 7.8569], [-77.3248, 7.8958], [-77.2566, 7.92], [-77.1754, 7.9172], [-77.1586, 7.9327], [-77.1709, 7.9367], [-77.1795, 7.9568]]]}}, {"type": "Feature", "properties": {"code": "27001", "dep": "Chocó", "mun": "Quibdó", "pob2024": 144610, "pob2025": 146875, "pob2026": 148945, "pobcab": 123500, "pobres": 21110, "viv": 35071, "ppv": 2.84, "lat": 5.9805, "lng": -76.3455, "sev": "critica", "sevf": "reportado", "dens": 41.2, "vivPrec": 0.031}, "geometry": {"type": "Polygon", "coordinates": [[[-76.7778, 6.3299], [-76.7904, 6.3214], [-76.7819, 6.2888], [-76.749, 6.2796], [-76.7565, 6.2522], [-76.7231, 6.237], [-76.7148, 6.1614], [-76.8019, 6.1165], [-76.8356, 6.136], [-76.8721, 6.1185], [-76.9407, 6.1483], [-76.9871, 6.029], [-76.9875, 6.0178], [-76.971, 6.0406], [-76.937, 6.0321], [-76.9195, 5.9941], [-76.9028, 5.9955], [-76.902, 5.9767], [-76.917, 5.9842], [-76.9286, 5.9587], [-76.925, 5.8915], [-76.8391, 5.8114], [-76.7703, 5.8213], [-76.7414, 5.8418], [-76.7237, 5.8345], [-76.7088, 5.8833], [-76.6803, 5.8717], [-76.5896, 5.9073], [-76.5889, 5.9338], [-76.5288, 5.9653], [-76.5218, 6.0071], [-76.4672, 6.0053], [-76.4419, 6.0362], [-76.4167, 6.0371], [-76.2837, 6.1507], [-76.2445, 6.2061], [-76.2095, 6.1845], [-76.1917, 6.0596], [-76.1602, 6.0041], [-76.173, 5.936], [-76.1881, 5.9132], [-76.2359, 5.9046], [-76.2525, 5.8587], [-76.2839, 5.8687], [-76.3547, 5.8169], [-76.3815, 5.7524], [-76.3734, 5.7234], [-76.3968, 5.7413], [-76.4023, 5.7173], [-76.4366, 5.7058], [-76.4391, 5.6889], [-76.5245, 5.6932], [-76.5496, 5.6613], [-76.5845, 5.6497], [-76.601, 5.6608], [-76.6522, 5.621], [-76.6791, 5.6524], [-76.6636, 5.6851], [-76.6855, 5.6873], [-76.6938, 5.6719], [-76.7177, 5.6855], [-76.8041, 5.6857], [-76.836, 5.6597], [-76.8937, 5.6821], [-76.9376, 5.6619], [-76.9521, 5.6706], [-76.9509, 5.7071], [-76.9953, 5.7325], [-77.0371, 5.9393], [-77.0706, 5.963], [-77.089, 5.9517], [-77.1217, 6.0306], [-77.1401, 6.037], [-77.1259, 6.0936], [-77.0573, 6.1556], [-77.0508, 6.205], [-77.0559, 6.2184], [-77.0764, 6.2151], [-77.0756, 6.2312], [-77.0376, 6.2931], [-76.9496, 6.2345], [-76.8979, 6.2358], [-76.8361, 6.2897], [-76.8236, 6.3409], [-76.7778, 6.3299]]]}}, {"type": "Feature", "properties": {"code": "27006", "dep": "Chocó", "mun": "Acandí", "pob2024": 15868, "pob2025": 16096, "pob2026": 16354, "pobcab": 7049, "pobres": 8819, "viv": 3747, "ppv": 2.84, "lat": 8.4746, "lng": -77.3258, "sev": "ninguna", "sevf": "reportado", "dens": 19.9, "vivPrec": 0.025}, "geometry": {"type": "Polygon", "coordinates": [[[-77.3682, 8.6774], [-77.3426, 8.6249], [-77.2882, 8.5751], [-77.2751, 8.5063], [-77.2489, 8.472], [-77.1307, 8.4119], [-77.1179, 8.3716], [-77.0764, 8.3252], [-77.0813, 8.3109], [-77.0952, 8.3081], [-77.1248, 8.3495], [-77.1566, 8.2843], [-77.2216, 8.2936], [-77.2472, 8.2704], [-77.3052, 8.2833], [-77.3338, 8.274], [-77.3553, 8.3161], [-77.3461, 8.3523], [-77.359, 8.4011], [-77.4019, 8.4765], [-77.4476, 8.4726], [-77.4563, 8.5085], [-77.4406, 8.5227], [-77.437, 8.5631], [-77.4096, 8.5663], [-77.4186, 8.5877], [-77.3906, 8.5847], [-77.4092, 8.6426], [-77.3646, 8.641], [-77.3699, 8.6539], [-77.3682, 8.6774]]]}}, {"type": "Feature", "properties": {"code": "27025", "dep": "Chocó", "mun": "Alto Baudó", "pob2024": 31267, "pob2025": 31745, "pob2026": 32170, "pobcab": 3274, "pobres": 27993, "viv": 5312, "ppv": 2.84, "lat": 5.6607, "lng": -77.08, "sev": "alta", "sevf": "reportado", "dens": 15.2, "vivPrec": 0.209}, "geometry": {"type": "Polygon", "coordinates": [[[-77.0078, 5.2938], [-77.0364, 5.3281], [-77.0296, 5.3625], [-77.0684, 5.3566], [-77.0713, 5.3855], [-77.1218, 5.4033], [-77.1466, 5.3804], [-77.1703, 5.3961], [-77.1924, 5.3806], [-77.269, 5.4454], [-77.2496, 5.4795], [-77.2688, 5.521], [-77.2447, 5.5131], [-77.2071, 5.5321], [-77.2103, 5.585], [-77.1889, 5.6155], [-77.1908, 5.6424], [-77.2196, 5.679], [-77.2216, 5.7187], [-77.2075, 5.737], [-77.1742, 5.7385], [-77.1868, 5.7988], [-77.1379, 5.8485], [-77.1963, 5.8901], [-77.2129, 5.8782], [-77.2474, 5.8897], [-77.2349, 5.904], [-77.2475, 5.9397], [-77.2931, 5.9638], [-77.2759, 6.0285], [-77.2139, 6.0176], [-77.1801, 6.0479], [-77.1253, 6.0329], [-77.089, 5.9517], [-77.0706, 5.963], [-77.0371, 5.9393], [-77.0052, 5.7478], [-76.9508, 5.7069], [-76.9687, 5.4992], [-76.9476, 5.4515], [-76.9047, 5.556], [-76.8767, 5.541], [-76.895, 5.4407], [-76.8562, 5.394], [-76.8981, 5.3299], [-76.9064, 5.2834], [-76.9325, 5.2786], [-76.9516, 5.3213], [-76.9882, 5.3052], [-76.987, 5.287], [-76.9924, 5.3042], [-77.0078, 5.2938]]]}}, {"type": "Feature", "properties": {"code": "27050", "dep": "Chocó", "mun": "Atrato", "pob2024": 6841, "pob2025": 6962, "pob2026": 7073, "pobcab": 3120, "pobres": 3721, "viv": 1633, "ppv": 2.84, "lat": 5.548, "lng": -76.6418, "sev": "alta", "sevf": "reportado", "dens": 16.2, "vivPrec": 0.023}, "geometry": {"type": "Polygon", "coordinates": [[[-76.5125, 5.6945], [-76.475, 5.6877], [-76.4791, 5.6401], [-76.5121, 5.6064], [-76.4974, 5.5529], [-76.5734, 5.5519], [-76.6164, 5.5225], [-76.5842, 5.4896], [-76.5882, 5.4506], [-76.5696, 5.4508], [-76.5843, 5.417], [-76.6173, 5.4033], [-76.6346, 5.4115], [-76.6333, 5.428], [-76.6819, 5.4339], [-76.6955, 5.4803], [-76.6701, 5.5], [-76.7056, 5.5252], [-76.682, 5.5269], [-76.7041, 5.5442], [-76.7092, 5.5801], [-76.6859, 5.6452], [-76.6645, 5.6472], [-76.6515, 5.6211], [-76.601, 5.6608], [-76.5845, 5.6497], [-76.5496, 5.6613], [-76.5125, 5.6945]]]}}, {"type": "Feature", "properties": {"code": "27073", "dep": "Chocó", "mun": "Bagadó", "pob2024": 11843, "pob2025": 11959, "pob2026": 12076, "pobcab": 2344, "pobres": 9499, "viv": 2898, "ppv": 2.84, "lat": 5.5133, "lng": -76.2004, "sev": "sindato", "sevf": "inferido", "dens": 14.7, "vivPrec": 0.15}, "geometry": {"type": "Polygon", "coordinates": [[[-76.0857, 5.6867], [-76.0115, 5.6306], [-76.0018, 5.6006], [-76.0091, 5.5676], [-76.037, 5.5672], [-76.0854, 5.5343], [-76.0756, 5.4996], [-76.0881, 5.4465], [-76.1525, 5.4076], [-76.1967, 5.4137], [-76.2395, 5.3597], [-76.2831, 5.3609], [-76.3211, 5.3342], [-76.3443, 5.3444], [-76.3539, 5.371], [-76.3966, 5.3495], [-76.4128, 5.3674], [-76.4089, 5.3915], [-76.4356, 5.4011], [-76.4097, 5.4345], [-76.369, 5.4127], [-76.3344, 5.4292], [-76.3429, 5.4464], [-76.3168, 5.527], [-76.2621, 5.5766], [-76.2058, 5.5896], [-76.1979, 5.6175], [-76.0857, 5.6867]]]}}, {"type": "Feature", "properties": {"code": "27075", "dep": "Chocó", "mun": "Bahía Solano", "pob2024": 11477, "pob2025": 11671, "pob2026": 11841, "pobcab": 6803, "pobres": 4674, "viv": 2487, "ppv": 2.84, "lat": 6.4118, "lng": -77.3458, "sev": "sindato", "sevf": "inferido", "dens": 12.8, "vivPrec": 0.064}, "geometry": {"type": "Polygon", "coordinates": [[[-77.4818, 6.1842], [-77.4744, 6.2971], [-77.3988, 6.2292], [-77.3698, 6.3551], [-77.4129, 6.3811], [-77.3557, 6.3989], [-77.3762, 6.425], [-77.3253, 6.5493], [-77.4003, 6.6208], [-77.4057, 6.6871], [-77.4267, 6.6844], [-77.4486, 6.7062], [-77.4833, 6.6978], [-77.4351, 6.7467], [-77.4358, 6.7657], [-77.3642, 6.809], [-77.3127, 6.7668], [-77.3476, 6.7648], [-77.3966, 6.7157], [-77.3707, 6.6838], [-77.3821, 6.6237], [-77.3594, 6.624], [-77.3468, 6.5973], [-77.3301, 6.5965], [-77.3092, 6.5516], [-77.3286, 6.4976], [-77.3114, 6.4369], [-77.337, 6.4247], [-77.2946, 6.376], [-77.2955, 6.3491], [-77.3139, 6.343], [-77.3076, 6.3095], [-77.3297, 6.2879], [-77.3108, 6.2616], [-77.2585, 6.262], [-77.2305, 6.2382], [-77.2476, 6.2084], [-77.2162, 6.1583], [-77.2221, 6.1363], [-77.2899, 6.0812], [-77.2912, 6.0525], [-77.2664, 6.041], [-77.309, 5.99], [-77.3336, 5.9896], [-77.3628, 6.0596], [-77.3526, 5.9989], [-77.3637, 5.999], [-77.373, 6.0441], [-77.4818, 6.1842]]]}}, {"type": "Feature", "properties": {"code": "27077", "dep": "Chocó", "mun": "Bajo Baudó", "pob2024": 33930, "pob2025": 34457, "pob2026": 34936, "pobcab": 6963, "pobres": 26967, "viv": 4384, "ppv": 2.84, "lat": 5.003, "lng": -77.3044, "sev": "sindato", "sevf": "inferido", "dens": 9.8, "vivPrec": 0.441}, "geometry": {"type": "Polygon", "coordinates": [[[-77.3886, 5.5644], [-77.3769, 5.5448], [-77.3191, 5.556], [-77.3107, 5.5278], [-77.289, 5.5167], [-77.2906, 5.4858], [-77.2652, 5.5061], [-77.2497, 5.4784], [-77.2696, 5.4595], [-77.2665, 5.4395], [-77.2028, 5.3856], [-77.1701, 5.3961], [-77.1468, 5.3804], [-77.1119, 5.4008], [-77.071, 5.3853], [-77.0684, 5.3566], [-77.0293, 5.3623], [-77.0364, 5.3281], [-77.0086, 5.2941], [-76.9924, 5.3042], [-76.9859, 5.2876], [-76.9882, 5.3051], [-76.9643, 5.3216], [-76.9305, 5.2925], [-76.9703, 5.298], [-76.984, 5.2809], [-77.0084, 5.274], [-77.007, 5.2442], [-77.0363, 5.2344], [-77.0407, 5.212], [-77.0621, 5.2111], [-77.0727, 5.1806], [-77.1099, 5.22], [-77.1271, 5.2019], [-77.1321, 5.2173], [-77.1596, 5.1849], [-77.1547, 5.1646], [-77.1751, 5.1586], [-77.1891, 5.0986], [-77.2359, 5.1119], [-77.2465, 5.0891], [-77.2298, 4.9996], [-77.273, 4.9988], [-77.2836, 4.9847], [-77.2751, 4.9676], [-77.2646, 4.979], [-77.2372, 4.9671], [-77.218, 5.0017], [-77.169, 5.0043], [-77.1396, 5.0336], [-77.081, 4.9826], [-77.13, 4.9519], [-77.1324, 4.9243], [-77.0967, 4.9095], [-77.0724, 4.9571], [-76.986, 4.9261], [-76.9709, 4.8941], [-76.998, 4.8546], [-76.9371, 4.8252], [-76.949, 4.8046], [-76.937, 4.7745], [-76.9643, 4.7591], [-76.9782, 4.7689], [-76.995, 4.7405], [-77.0239, 4.7354], [-77.057, 4.7003], [-77.0492, 4.6799], [-77.0697, 4.6461], [-77.0899, 4.6471], [-77.0994, 4.614], [-77.1266, 4.6014], [-77.1599, 4.5241], [-77.1504, 4.5058], [-77.0991, 4.4939], [-77.0608, 4.5174], [-77.0382, 4.5031], [-77.0607, 4.4723], [-77.1042, 4.4839], [-77.1077, 4.4422], [-77.1231, 4.4551], [-77.1935, 4.4435], [-77.2079, 4.4757], [-77.2424, 4.494], [-77.2522, 4.5308], [-77.2746, 4.5374], [-77.2765, 4.5585], [-77.3269, 4.571], [-77.3282, 4.7397], [-77.2999, 4.7471], [-77.3091, 4.782], [-77.3484, 4.7717], [-77.3296, 4.798], [-77.348, 4.8084], [-77.3762, 4.9479], [-77.3841, 5.1521], [-77.3972, 5.169], [-77.3878, 5.2883], [-77.4133, 5.4052], [-77.3874, 5.3918], [-77.3934, 5.4056], [-77.3808, 5.4086], [-77.3968, 5.4196], [-77.3828, 5.4215], [-77.4001, 5.4523], [-77.4286, 5.4374], [-77.4299, 5.4684], [-77.454, 5.4887], [-77.4925, 5.4686], [-77.5394, 5.4812], [-77.5233, 5.5051], [-77.4908, 5.4937], [-77.4892, 5.5086], [-77.3886, 5.5644]]]}}, {"type": "Feature", "properties": {"code": "27099", "dep": "Chocó", "mun": "Bojayá", "pob2024": 13719, "pob2025": 13935, "pob2026": 14143, "pobcab": 964, "pobres": 12755, "viv": 2856, "ppv": 2.84, "lat": 6.4389, "lng": -77.0488, "sev": "sindato", "sevf": "inferido", "dens": 3.8, "vivPrec": 0.083}, "geometry": {"type": "Polygon", "coordinates": [[[-76.933, 6.8121], [-76.9723, 6.809], [-76.9579, 6.7925], [-76.9672, 6.7431], [-76.9336, 6.7109], [-76.9641, 6.6809], [-76.939, 6.6863], [-76.9248, 6.6469], [-76.8981, 6.6682], [-76.909, 6.6294], [-76.858, 6.6184], [-76.8897, 6.6053], [-76.8945, 6.5702], [-76.883, 6.56], [-76.8639, 6.5715], [-76.8411, 6.5215], [-76.8194, 6.5255], [-76.82, 6.4872], [-76.8004, 6.508], [-76.7687, 6.4792], [-76.796, 6.4408], [-76.7623, 6.4344], [-76.7957, 6.4176], [-76.7661, 6.393], [-76.7874, 6.3779], [-76.7718, 6.3616], [-76.7908, 6.3424], [-76.8236, 6.3409], [-76.8361, 6.2897], [-76.8979, 6.2358], [-76.9496, 6.2345], [-77.0376, 6.2931], [-77.0756, 6.2312], [-77.0764, 6.2151], [-77.0559, 6.2184], [-77.0508, 6.205], [-77.057, 6.1564], [-77.1259, 6.0936], [-77.137, 6.0378], [-77.1801, 6.0479], [-77.2139, 6.0176], [-77.2677, 6.024], [-77.2917, 6.0772], [-77.2177, 6.1451], [-77.2476, 6.2084], [-77.2304, 6.238], [-77.2585, 6.262], [-77.3108, 6.2616], [-77.3297, 6.2879], [-77.3076, 6.3095], [-77.3139, 6.343], [-77.2955, 6.3491], [-77.2946, 6.376], [-77.337, 6.4247], [-77.3114, 6.4369], [-77.3286, 6.4976], [-77.3092, 6.5516], [-77.3301, 6.5965], [-77.3468, 6.5973], [-77.3594, 6.624], [-77.3821, 6.6237], [-77.3707, 6.6838], [-77.3961, 6.7174], [-77.3476, 6.7648], [-77.3229, 6.7568], [-77.264, 6.7874], [-77.2003, 6.7751], [-77.1911, 6.834], [-77.1383, 6.8186], [-77.1119, 6.7746], [-77.0837, 6.8165], [-76.9914, 6.8289], [-76.9023, 6.8638], [-76.933, 6.8121]]]}}, {"type": "Feature", "properties": {"code": "27135", "dep": "Chocó", "mun": "El Cantón Del San Pablo", "pob2024": 6906, "pob2025": 7016, "pob2026": 7133, "pobcab": 3086, "pobres": 3820, "viv": 1750, "ppv": 2.84, "lat": 5.3753, "lng": -76.7602, "sev": "sindato", "sevf": "inferido", "dens": 18.1, "vivPrec": 0.031}, "geometry": {"type": "Polygon", "coordinates": [[[-76.8713, 5.5099], [-76.8477, 5.4772], [-76.815, 5.4638], [-76.8104, 5.4369], [-76.6868, 5.4042], [-76.6552, 5.3332], [-76.7258, 5.326], [-76.6519, 5.272], [-76.6517, 5.2712], [-76.6754, 5.2396], [-76.7515, 5.2491], [-76.7399, 5.2831], [-76.8394, 5.265], [-76.8249, 5.3463], [-76.895, 5.4407], [-76.8713, 5.5099]]]}}, {"type": "Feature", "properties": {"code": "27150", "dep": "Chocó", "mun": "Carmen Del Darién", "pob2024": 22154, "pob2025": 22466, "pob2026": 22751, "pobcab": 2143, "pobres": 20011, "viv": 3754, "ppv": 2.84, "lat": 7.0442, "lng": -76.9138, "sev": "ninguna", "sevf": "reportado", "dens": 7.0, "vivPrec": 0.089}, "geometry": {"type": "Polygon", "coordinates": [[[-76.7664, 7.314], [-76.6603, 7.2513], [-76.6693, 7.2371], [-76.6421, 7.2266], [-76.645, 7.2072], [-76.5854, 7.1366], [-76.5255, 7.1074], [-76.5534, 6.9944], [-76.581, 6.9822], [-76.5929, 7.0116], [-76.6032, 7.0005], [-76.6156, 7.0168], [-76.6455, 7.0084], [-76.6756, 7.0299], [-76.8303, 7.0026], [-76.8425, 6.9883], [-76.8191, 6.976], [-76.8285, 6.9555], [-76.8134, 6.9635], [-76.8001, 6.9486], [-76.7854, 6.8793], [-76.7972, 6.862], [-76.8306, 6.8586], [-76.8179, 6.8377], [-76.8353, 6.8287], [-76.8777, 6.8522], [-76.8999, 6.829], [-76.9155, 6.8422], [-76.9076, 6.8643], [-76.9914, 6.8289], [-77.0837, 6.8165], [-77.1119, 6.7746], [-77.1378, 6.8182], [-77.1867, 6.8346], [-77.2018, 6.7746], [-77.264, 6.7874], [-77.317, 6.767], [-77.3618, 6.8065], [-77.3531, 6.8447], [-77.3703, 6.8667], [-77.4049, 6.8723], [-77.4008, 6.9065], [-77.4165, 6.9238], [-77.3023, 7.0137], [-77.303, 7.0344], [-77.2699, 7.0539], [-77.2619, 7.0813], [-77.1949, 7.1077], [-77.181, 7.0851], [-77.1452, 7.1288], [-77.0973, 7.1436], [-77.0818, 7.1629], [-77.1115, 7.1904], [-76.9974, 7.2509], [-77.0068, 7.2849], [-76.9016, 7.2945], [-76.8769, 7.2101], [-76.8544, 7.2286], [-76.8398, 7.2949], [-76.7664, 7.314]]]}}, {"type": "Feature", "properties": {"code": "27160", "dep": "Chocó", "mun": "Cértegui", "pob2024": 6203, "pob2025": 6302, "pob2026": 6389, "pobcab": 3510, "pobres": 2693, "viv": 1629, "ppv": 2.84, "lat": 5.3858, "lng": -76.5273, "sev": "sindato", "sevf": "inferido", "dens": 14.7, "vivPrec": 0.163}, "geometry": {"type": "Polygon", "coordinates": [[[-76.4567, 5.4963], [-76.4303, 5.4823], [-76.4346, 5.4694], [-76.3992, 5.4693], [-76.3935, 5.4452], [-76.3357, 5.4284], [-76.369, 5.4127], [-76.4097, 5.4345], [-76.4356, 5.4011], [-76.4088, 5.3913], [-76.4118, 5.3466], [-76.4919, 5.3391], [-76.5307, 5.2877], [-76.5736, 5.2676], [-76.5981, 5.2735], [-76.6031, 5.3284], [-76.634, 5.3804], [-76.7213, 5.4217], [-76.6376, 5.4295], [-76.6342, 5.4112], [-76.6105, 5.4027], [-76.5843, 5.417], [-76.5696, 5.4508], [-76.4995, 5.4726], [-76.4691, 5.4672], [-76.4567, 5.4963]]]}}, {"type": "Feature", "properties": {"code": "27205", "dep": "Chocó", "mun": "Condoto", "pob2024": 13928, "pob2025": 14183, "pob2026": 14419, "pobcab": 10732, "pobres": 3196, "viv": 3808, "ppv": 2.84, "lat": 5.073, "lng": -76.5584, "sev": "alta", "sevf": "reportado", "dens": 29.8, "vivPrec": 0.007}, "geometry": {"type": "Polygon", "coordinates": [[[-76.3296, 5.2104], [-76.2979, 5.1798], [-76.2905, 5.1265], [-76.3254, 5.1298], [-76.3961, 5.0988], [-76.4213, 5.1084], [-76.4253, 5.0506], [-76.4986, 4.9797], [-76.5504, 5.0072], [-76.6122, 5.0061], [-76.6364, 4.9878], [-76.6474, 5.0035], [-76.7086, 4.9907], [-76.7247, 5.0028], [-76.6768, 5.1092], [-76.5931, 5.0953], [-76.5301, 5.1239], [-76.5353, 5.1476], [-76.4948, 5.1535], [-76.4714, 5.1346], [-76.4475, 5.1584], [-76.4235, 5.115], [-76.371, 5.1203], [-76.3535, 5.1548], [-76.3327, 5.1631], [-76.3601, 5.1976], [-76.3296, 5.2104]]]}}, {"type": "Feature", "properties": {"code": "27245", "dep": "Chocó", "mun": "El Carmen De Atrato", "pob2024": 9273, "pob2025": 9413, "pob2026": 9568, "pobcab": 2647, "pobres": 6626, "viv": 2411, "ppv": 2.84, "lat": 5.8331, "lng": -76.2125, "sev": "media", "sevf": "reportado", "dens": 11.2, "vivPrec": 0.112}, "geometry": {"type": "Polygon", "coordinates": [[[-76.1107, 6.0203], [-76.051, 5.9508], [-76.0605, 5.8863], [-76.0816, 5.8828], [-76.099, 5.8492], [-76.0709, 5.7807], [-76.0811, 5.767], [-76.0612, 5.758], [-76.087, 5.6886], [-76.1398, 5.6551], [-76.1827, 5.682], [-76.2433, 5.6722], [-76.2558, 5.7013], [-76.2943, 5.7115], [-76.3702, 5.7032], [-76.3815, 5.7524], [-76.3547, 5.8169], [-76.2839, 5.8687], [-76.2525, 5.8587], [-76.2359, 5.9046], [-76.1881, 5.9132], [-76.1743, 5.9333], [-76.1648, 5.9995], [-76.1319, 5.9998], [-76.1107, 6.0203]]]}}, {"type": "Feature", "properties": {"code": "27250", "dep": "Chocó", "mun": "El Litoral Del San Juan", "pob2024": 25403, "pob2025": 25814, "pob2026": 26183, "pobcab": 1498, "pobres": 23905, "viv": 2786, "ppv": 2.84, "lat": 4.2728, "lng": -76.9871, "sev": "media", "sevf": "reportado", "dens": 6.1, "vivPrec": 0.433}, "geometry": {"type": "Polygon", "coordinates": [[[-77.2765, 4.5585], [-77.2746, 4.5374], [-77.2522, 4.5308], [-77.2424, 4.494], [-77.2079, 4.4757], [-77.1935, 4.4435], [-77.1231, 4.4551], [-77.1077, 4.4422], [-77.1067, 4.4814], [-77.0858, 4.4851], [-77.0469, 4.4651], [-77.0574, 4.4544], [-77.0412, 4.4369], [-76.9698, 4.4402], [-76.9432, 4.4176], [-76.8792, 4.4401], [-76.8723, 4.4175], [-76.8023, 4.426], [-76.8, 4.3974], [-76.7825, 4.394], [-76.7817, 4.4109], [-76.7652, 4.4116], [-76.7233, 4.4026], [-76.7045, 4.3793], [-76.6784, 4.3969], [-76.6355, 4.3802], [-76.6143, 4.3355], [-76.5424, 4.3346], [-76.5066, 4.2528], [-76.4557, 4.2303], [-76.4467, 4.2045], [-76.4727, 4.1036], [-76.4999, 4.0629], [-76.5244, 4.0673], [-76.5415, 4.0437], [-76.5373, 4.0162], [-76.589, 3.9707], [-76.5929, 3.9985], [-76.6249, 4.0149], [-76.6833, 3.9649], [-76.7677, 3.9887], [-76.7942, 4.0114], [-76.8153, 4.007], [-76.8288, 4.0352], [-76.8665, 4.0318], [-76.9147, 4.0977], [-76.9544, 4.1207], [-76.995, 4.1204], [-77.0048, 4.0989], [-77.0359, 4.0913], [-77.068, 4.096], [-77.0862, 4.1226], [-77.1045, 4.1076], [-77.1199, 4.1164], [-77.1163, 4.1333], [-77.1596, 4.1837], [-77.2218, 4.1563], [-77.2484, 4.1844], [-77.2579, 4.2347], [-77.2803, 4.221], [-77.3055, 4.1665], [-77.353, 4.1975], [-77.3903, 4.1485], [-77.4358, 4.1458], [-77.4289, 4.0931], [-77.4496, 4.0385], [-77.5255, 4.1264], [-77.5248, 4.2576], [-77.4986, 4.2932], [-77.4818, 4.2879], [-77.4929, 4.2575], [-77.4141, 4.2929], [-77.4562, 4.3131], [-77.4261, 4.3194], [-77.3761, 4.3891], [-77.3868, 4.3685], [-77.3667, 4.3702], [-77.3661, 4.4076], [-77.3376, 4.4293], [-77.3444, 4.432], [-77.3515, 4.4218], [-77.3533, 4.4282], [-77.3399, 4.5121], [-77.3227, 4.5226], [-77.3361, 4.5352], [-77.3315, 4.5635], [-77.2765, 4.5585]]]}}, {"type": "Feature", "properties": {"code": "27361", "dep": "Chocó", "mun": "Istmina", "pob2024": 33814, "pob2025": 34414, "pob2026": 34957, "pobcab": 24310, "pobres": 9504, "viv": 8137, "ppv": 2.84, "lat": 4.841, "lng": -76.9205, "sev": "alta", "sevf": "reportado", "dens": 18.0, "vivPrec": 0.013}, "geometry": {"type": "Polygon", "coordinates": [[[-76.7477, 5.2824], [-76.7515, 5.2491], [-76.7046, 5.2454], [-76.6725, 5.1851], [-76.6285, 5.215], [-76.6181, 5.1925], [-76.5956, 5.1952], [-76.5365, 5.2395], [-76.5255, 5.2037], [-76.5622, 5.1694], [-76.6102, 5.1729], [-76.6443, 5.1269], [-76.6609, 5.1404], [-76.6904, 5.1159], [-76.7028, 5.1273], [-76.7338, 5.1129], [-76.769, 5.0168], [-76.7647, 5.006], [-76.7419, 5.014], [-76.7414, 4.9979], [-76.8005, 4.9727], [-76.8222, 4.9885], [-76.8192, 4.9728], [-76.8624, 4.9421], [-76.8814, 4.896], [-76.8637, 4.875], [-76.8812, 4.811], [-76.8589, 4.7529], [-76.8716, 4.7423], [-76.8658, 4.7087], [-76.8802, 4.7012], [-76.8982, 4.7197], [-76.9164, 4.6944], [-76.9457, 4.7081], [-76.9642, 4.6941], [-76.9636, 4.6652], [-76.9208, 4.6043], [-76.8915, 4.6017], [-76.8814, 4.621], [-76.8631, 4.6045], [-76.8363, 4.6156], [-76.7812, 4.5895], [-76.7655, 4.5583], [-76.6943, 4.5392], [-76.6756, 4.4974], [-76.6523, 4.4908], [-76.6819, 4.4563], [-76.6374, 4.3808], [-76.6784, 4.3969], [-76.7152, 4.3815], [-76.7233, 4.4026], [-76.7776, 4.4135], [-76.7915, 4.3946], [-76.8023, 4.426], [-76.8723, 4.4175], [-76.8788, 4.4401], [-76.9432, 4.4176], [-76.9698, 4.4402], [-77.0412, 4.4369], [-77.0607, 4.4723], [-77.042, 4.5106], [-77.0608, 4.5174], [-77.0993, 4.4939], [-77.1483, 4.5042], [-77.1599, 4.5234], [-77.1261, 4.6025], [-77.0998, 4.6135], [-77.0899, 4.6471], [-77.0697, 4.6461], [-77.0495, 4.6791], [-77.0518, 4.7072], [-77.0244, 4.7203], [-77.0226, 4.7363], [-76.9947, 4.7407], [-76.9783, 4.7688], [-76.9643, 4.7591], [-76.9364, 4.7754], [-76.949, 4.8046], [-76.938, 4.8272], [-76.9981, 4.8548], [-76.9709, 4.894], [-76.9757, 4.9203], [-76.9215, 4.9649], [-76.8803, 4.9445], [-76.8737, 4.9881], [-76.8474, 5.0133], [-76.8581, 5.0277], [-76.7975, 5.0872], [-76.8147, 5.1043], [-76.7911, 5.1673], [-76.835, 5.1735], [-76.8581, 5.2653], [-76.7477, 5.2824]]]}}, {"type": "Feature", "properties": {"code": "27372", "dep": "Chocó", "mun": "Juradó", "pob2024": 7535, "pob2025": 7637, "pob2026": 7739, "pobcab": 2579, "pobres": 4956, "viv": 1033, "ppv": 2.84, "lat": 7.0651, "lng": -77.6525, "sev": "sindato", "sevf": "inferido", "dens": 6.0, "vivPrec": 0.043}, "geometry": {"type": "Polygon", "coordinates": [[[-77.7058, 7.4987], [-77.6999, 7.4606], [-77.7133, 7.4387], [-77.7381, 7.4358], [-77.7347, 7.3726], [-77.7014, 7.2865], [-77.6814, 7.2765], [-77.6683, 7.2218], [-77.6014, 7.2052], [-77.5856, 7.1736], [-77.6032, 7.153], [-77.6025, 7.0974], [-77.5609, 6.9948], [-77.5916, 6.9281], [-77.5366, 6.8462], [-77.5455, 6.8295], [-77.5276, 6.8055], [-77.5455, 6.7758], [-77.5399, 6.728], [-77.5237, 6.7246], [-77.5053, 6.753], [-77.4868, 6.7493], [-77.4945, 6.7691], [-77.4622, 6.8212], [-77.3717, 6.808], [-77.4358, 6.7657], [-77.4351, 6.7467], [-77.5045, 6.6858], [-77.5043, 6.6512], [-77.5366, 6.6561], [-77.5309, 6.6944], [-77.5874, 6.819], [-77.6574, 6.8544], [-77.6662, 6.8755], [-77.6846, 6.8707], [-77.6895, 6.8353], [-77.7021, 6.8424], [-77.7119, 6.8842], [-77.6986, 6.9393], [-77.6539, 6.9669], [-77.6797, 7.0327], [-77.8838, 7.2168], [-77.7925, 7.461], [-77.7404, 7.4655], [-77.7058, 7.4987]]]}}, {"type": "Feature", "properties": {"code": "27413", "dep": "Chocó", "mun": "Lloró", "pob2024": 10611, "pob2025": 10745, "pob2026": 10864, "pobcab": 3429, "pobres": 7182, "viv": 2380, "ppv": 2.84, "lat": 5.5831, "lng": -76.37, "sev": "sindato", "sevf": "inferido", "dens": 12.6, "vivPrec": 0.281}, "geometry": {"type": "Polygon", "coordinates": [[[-76.4567, 5.4963], [-76.4691, 5.4672], [-76.5877, 5.4504], [-76.5842, 5.4896], [-76.6164, 5.5225], [-76.5734, 5.5519], [-76.4981, 5.5519], [-76.5121, 5.6064], [-76.4791, 5.6401], [-76.475, 5.6877], [-76.4391, 5.6889], [-76.4366, 5.7058], [-76.4023, 5.7173], [-76.3968, 5.7413], [-76.3564, 5.6978], [-76.2943, 5.7115], [-76.2558, 5.7013], [-76.2433, 5.6722], [-76.1827, 5.682], [-76.1398, 5.6551], [-76.1979, 5.6175], [-76.2058, 5.5896], [-76.2621, 5.5766], [-76.3168, 5.527], [-76.3429, 5.4464], [-76.3357, 5.4284], [-76.3935, 5.4452], [-76.3992, 5.4693], [-76.4346, 5.4694], [-76.4303, 5.4823], [-76.4567, 5.4963]]]}}, {"type": "Feature", "properties": {"code": "27425", "dep": "Chocó", "mun": "Medio Atrato", "pob2024": 12894, "pob2025": 13100, "pob2026": 13290, "pobcab": 846, "pobres": 12048, "viv": 2810, "ppv": 2.84, "lat": 6.0126, "lng": -76.6946, "sev": "sindato", "sevf": "inferido", "dens": 7.1, "vivPrec": 0.33}, "geometry": {"type": "Polygon", "coordinates": [[[-76.2492, 6.2042], [-76.2837, 6.1507], [-76.4167, 6.0371], [-76.4419, 6.0362], [-76.4672, 6.0053], [-76.5218, 6.0071], [-76.5288, 5.9653], [-76.5889, 5.9338], [-76.5876, 5.9086], [-76.6803, 5.8717], [-76.7088, 5.8833], [-76.7237, 5.8345], [-76.7437, 5.8413], [-76.7703, 5.8213], [-76.8386, 5.8114], [-76.8621, 5.8242], [-76.8591, 5.8389], [-76.925, 5.8915], [-76.9286, 5.9587], [-76.917, 5.9842], [-76.902, 5.9767], [-76.9028, 5.9955], [-76.9195, 5.9941], [-76.937, 6.0321], [-76.971, 6.0406], [-76.9877, 6.018], [-76.9704, 6.096], [-76.9384, 6.1491], [-76.8721, 6.1185], [-76.8356, 6.136], [-76.8019, 6.1165], [-76.754, 6.132], [-76.7157, 6.1709], [-76.6439, 6.1683], [-76.6019, 6.1926], [-76.4755, 6.1601], [-76.4687, 6.1766], [-76.4199, 6.1657], [-76.3898, 6.1915], [-76.2492, 6.2042]]]}}, {"type": "Feature", "properties": {"code": "27430", "dep": "Chocó", "mun": "Medio Baudó", "pob2024": 16893, "pob2025": 17139, "pob2026": 17396, "pobcab": 2141, "pobres": 14752, "viv": 3606, "ppv": 2.84, "lat": 5.1353, "lng": -76.9906, "sev": "alta", "sevf": "reportado", "dens": 12.3, "vivPrec": 0.161}, "geometry": {"type": "Polygon", "coordinates": [[[-76.8582, 5.382], [-76.8248, 5.3455], [-76.838, 5.274], [-76.8581, 5.2653], [-76.8515, 5.2033], [-76.8349, 5.1734], [-76.7898, 5.1588], [-76.8147, 5.1043], [-76.7975, 5.0872], [-76.8581, 5.0277], [-76.8474, 5.0133], [-76.8737, 4.9881], [-76.8803, 4.9445], [-76.9215, 4.9649], [-76.9788, 4.917], [-77.0729, 4.9571], [-77.0815, 4.9183], [-77.1056, 4.908], [-77.1353, 4.9288], [-77.1302, 4.9513], [-77.0831, 4.9917], [-77.1485, 5.0353], [-77.1686, 5.0045], [-77.218, 5.0017], [-77.2363, 4.9675], [-77.2639, 4.979], [-77.279, 4.9695], [-77.2745, 4.9981], [-77.2298, 4.9996], [-77.2466, 5.0847], [-77.2359, 5.1119], [-77.1891, 5.0986], [-77.1751, 5.1586], [-77.1547, 5.1646], [-77.1596, 5.1849], [-77.1321, 5.2173], [-77.1271, 5.2019], [-77.1099, 5.22], [-77.0727, 5.1806], [-77.0621, 5.2111], [-77.0407, 5.212], [-77.0363, 5.2344], [-77.007, 5.2442], [-77.0084, 5.274], [-76.9729, 5.2971], [-76.9064, 5.2834], [-76.8981, 5.3299], [-76.8582, 5.382]]]}}, {"type": "Feature", "properties": {"code": "27450", "dep": "Chocó", "mun": "Medio San Juan", "pob2024": 11764, "pob2025": 11945, "pob2026": 12105, "pobcab": 2702, "pobres": 9062, "viv": 2780, "ppv": 2.84, "lat": 4.8049, "lng": -76.8353, "sev": "sindato", "sevf": "inferido", "dens": 17.7, "vivPrec": 0.009}, "geometry": {"type": "Polygon", "coordinates": [[[-76.7011, 5.1269], [-76.6904, 5.1159], [-76.6818, 5.1271], [-76.6768, 5.1092], [-76.7073, 5.0525], [-76.6971, 5.0422], [-76.726, 5.0067], [-76.6892, 4.9603], [-76.6898, 4.9145], [-76.7218, 4.904], [-76.7311, 4.8797], [-76.7633, 4.8758], [-76.7869, 4.847], [-76.7924, 4.7989], [-76.812, 4.7922], [-76.805, 4.7718], [-76.8338, 4.7775], [-76.8433, 4.7506], [-76.8139, 4.6518], [-76.7117, 4.5943], [-76.6573, 4.5104], [-76.6621, 4.4893], [-76.6962, 4.5406], [-76.7655, 4.5583], [-76.7812, 4.5895], [-76.8361, 4.6155], [-76.8631, 4.6045], [-76.8814, 4.621], [-76.8915, 4.6017], [-76.9208, 4.6043], [-76.9637, 4.6669], [-76.9642, 4.6941], [-76.9457, 4.7081], [-76.9164, 4.6944], [-76.8968, 4.7198], [-76.8673, 4.7059], [-76.8716, 4.7423], [-76.8589, 4.7529], [-76.8812, 4.811], [-76.8637, 4.8748], [-76.8826, 4.8904], [-76.8736, 4.9191], [-76.8192, 4.9728], [-76.8222, 4.9886], [-76.8005, 4.9727], [-76.7414, 4.9979], [-76.7419, 5.014], [-76.7688, 5.0145], [-76.7487, 5.0502], [-76.7582, 5.0733], [-76.7317, 5.1153], [-76.7011, 5.1269]]]}}, {"type": "Feature", "properties": {"code": "27491", "dep": "Chocó", "mun": "Nóvita", "pob2024": 10384, "pob2025": 10551, "pob2026": 10715, "pobcab": 3826, "pobres": 6558, "viv": 2625, "ppv": 2.84, "lat": 4.823, "lng": -76.6477, "sev": "sindato", "sevf": "inferido", "dens": 11.0, "vivPrec": 0.014}, "geometry": {"type": "Polygon", "coordinates": [[[-76.4338, 5.0218], [-76.4199, 4.9499], [-76.4714, 4.929], [-76.4748, 4.8846], [-76.5005, 4.8664], [-76.5091, 4.7963], [-76.5282, 4.7917], [-76.5776, 4.7139], [-76.5787, 4.6744], [-76.607, 4.6766], [-76.6318, 4.6575], [-76.6899, 4.7197], [-76.7513, 4.7215], [-76.7742, 4.7577], [-76.8321, 4.7686], [-76.8432, 4.7517], [-76.8338, 4.7775], [-76.805, 4.7718], [-76.812, 4.7922], [-76.7924, 4.7989], [-76.7869, 4.847], [-76.7633, 4.8758], [-76.6938, 4.9073], [-76.6891, 4.96], [-76.7073, 4.9908], [-76.6482, 5.0037], [-76.6358, 4.9878], [-76.6122, 5.0061], [-76.5576, 5.0079], [-76.4986, 4.9797], [-76.4664, 5.021], [-76.4338, 5.0218]]]}}, {"type": "Feature", "properties": {"code": "27495", "dep": "Chocó", "mun": "Nuquí", "pob2024": 18229, "pob2025": 18502, "pob2026": 18732, "pobcab": 1235, "pobres": 16994, "viv": 862, "ppv": 2.84, "lat": 5.7637, "lng": -77.2159, "sev": "alta", "sevf": "reportado", "dens": 25.9, "vivPrec": 0.215}, "geometry": {"type": "Polygon", "coordinates": [[[-77.2928, 5.9632], [-77.2473, 5.9394], [-77.2349, 5.904], [-77.2461, 5.8885], [-77.2129, 5.8782], [-77.1963, 5.8901], [-77.138, 5.849], [-77.1868, 5.7988], [-77.1742, 5.7385], [-77.2151, 5.7324], [-77.2255, 5.7033], [-77.1904, 5.6411], [-77.2105, 5.5843], [-77.2052, 5.5346], [-77.2447, 5.5131], [-77.2683, 5.5214], [-77.2708, 5.4974], [-77.2902, 5.4856], [-77.289, 5.5167], [-77.3107, 5.5278], [-77.3191, 5.556], [-77.3769, 5.5448], [-77.3897, 5.5652], [-77.4017, 5.5457], [-77.4158, 5.5532], [-77.4211, 5.5365], [-77.5036, 5.494], [-77.5233, 5.5051], [-77.4898, 5.6074], [-77.4599, 5.5965], [-77.4144, 5.6303], [-77.3517, 5.6119], [-77.2619, 5.7206], [-77.2439, 5.802], [-77.2495, 5.8103], [-77.2525, 5.7889], [-77.2765, 5.8461], [-77.2905, 5.8433], [-77.2945, 5.8736], [-77.307, 5.8736], [-77.3068, 5.9192], [-77.3344, 5.9884], [-77.2894, 6.006], [-77.2928, 5.9632]]]}}, {"type": "Feature", "properties": {"code": "27580", "dep": "Chocó", "mun": "Río Iró", "pob2024": 5885, "pob2025": 5983, "pob2026": 6072, "pobcab": 1549, "pobres": 4336, "viv": 1287, "ppv": 2.84, "lat": 5.18, "lng": -76.4427, "sev": "sindato", "sevf": "inferido", "dens": 18.1, "vivPrec": 0.022}, "geometry": {"type": "Polygon", "coordinates": [[[-76.3972, 5.2635], [-76.388, 5.2115], [-76.3339, 5.1757], [-76.3706, 5.1205], [-76.4235, 5.115], [-76.4475, 5.1584], [-76.4714, 5.1346], [-76.4948, 5.1535], [-76.5353, 5.1476], [-76.5301, 5.1239], [-76.5931, 5.0953], [-76.6792, 5.1106], [-76.679, 5.1313], [-76.6588, 5.1405], [-76.6442, 5.1269], [-76.6096, 5.1732], [-76.5622, 5.1694], [-76.538, 5.1844], [-76.5262, 5.2275], [-76.4897, 5.2138], [-76.4886, 5.2598], [-76.452, 5.2491], [-76.4406, 5.2665], [-76.3972, 5.2635]]]}}, {"type": "Feature", "properties": {"code": "27600", "dep": "Chocó", "mun": "Río Quito", "pob2024": 9158, "pob2025": 9296, "pob2026": 9436, "pobcab": 2332, "pobres": 6826, "viv": 2134, "ppv": 2.84, "lat": 5.5527, "lng": -76.7978, "sev": "sindato", "sevf": "inferido", "dens": 13.1, "vivPrec": 0.062}, "geometry": {"type": "Polygon", "coordinates": [[[-76.6942, 5.672], [-76.6855, 5.6873], [-76.6636, 5.6851], [-76.7092, 5.5802], [-76.7041, 5.5442], [-76.682, 5.5269], [-76.7056, 5.5252], [-76.6944, 5.5118], [-76.6701, 5.5], [-76.6955, 5.4803], [-76.6819, 5.4339], [-76.736, 5.4125], [-76.8104, 5.4369], [-76.815, 5.4638], [-76.8524, 5.4819], [-76.8949, 5.5612], [-76.9476, 5.4515], [-76.9687, 5.4992], [-76.9535, 5.6638], [-76.8934, 5.6821], [-76.8299, 5.6603], [-76.8041, 5.6857], [-76.6942, 5.672]]]}}, {"type": "Feature", "properties": {"code": "27660", "dep": "Chocó", "mun": "San José Del Palmar", "pob2024": 5697, "pob2025": 5809, "pob2026": 5907, "pobcab": 1265, "pobres": 4432, "viv": 1485, "ppv": 2.84, "lat": 4.9848, "lng": -76.2583, "sev": "alta", "sevf": "reportado", "dens": 3.6, "vivPrec": 0.034}, "geometry": {"type": "Polygon", "coordinates": [[[-76.1423, 5.1819], [-76.0854, 5.16], [-76.0589, 5.1212], [-76.0765, 5.048], [-76.0968, 5.0318], [-76.0887, 4.9461], [-76.0997, 4.9172], [-76.1306, 4.9112], [-76.1141, 4.8904], [-76.1386, 4.842], [-76.2138, 4.8283], [-76.2306, 4.8021], [-76.2607, 4.795], [-76.3123, 4.75], [-76.4627, 4.749], [-76.4839, 4.7635], [-76.5109, 4.8051], [-76.5005, 4.8664], [-76.4748, 4.8846], [-76.4704, 4.9307], [-76.4195, 4.9511], [-76.4291, 5.0186], [-76.4433, 5.0265], [-76.4225, 5.0564], [-76.4219, 5.1079], [-76.395, 5.0991], [-76.3245, 5.1299], [-76.2568, 5.12], [-76.2354, 5.1562], [-76.1423, 5.1819]]]}}, {"type": "Feature", "properties": {"code": "27745", "dep": "Chocó", "mun": "Sipí", "pob2024": 3612, "pob2025": 3664, "pob2026": 3714, "pobcab": 753, "pobres": 2859, "viv": 848, "ppv": 2.84, "lat": 4.5795, "lng": -76.5193, "sev": "sindato", "sevf": "inferido", "dens": 2.3, "vivPrec": 0.086}, "geometry": {"type": "Polygon", "coordinates": [[[-76.5069, 4.7943], [-76.4627, 4.749], [-76.3131, 4.7506], [-76.286, 4.7103], [-76.3421, 4.5647], [-76.3813, 4.5596], [-76.4038, 4.535], [-76.3652, 4.4916], [-76.383, 4.4928], [-76.4183, 4.4478], [-76.4821, 4.4141], [-76.553, 4.4016], [-76.562, 4.3697], [-76.5493, 4.3371], [-76.6143, 4.3355], [-76.6818, 4.4561], [-76.6523, 4.4907], [-76.6573, 4.5104], [-76.7117, 4.5943], [-76.8088, 4.6447], [-76.8432, 4.7517], [-76.8321, 4.7686], [-76.7742, 4.7577], [-76.7513, 4.7215], [-76.6899, 4.7197], [-76.6299, 4.6573], [-76.607, 4.6766], [-76.5781, 4.6749], [-76.5774, 4.7143], [-76.5282, 4.7917], [-76.5069, 4.7943]]]}}, {"type": "Feature", "properties": {"code": "27787", "dep": "Chocó", "mun": "Tadó", "pob2024": 20154, "pob2025": 20476, "pob2026": 20758, "pobcab": 11805, "pobres": 8349, "viv": 5302, "ppv": 2.84, "lat": 5.2674, "lng": -76.3867, "sev": "sindato", "sevf": "inferido", "dens": 28.2, "vivPrec": 0.048}, "geometry": {"type": "Polygon", "coordinates": [[[-76.2114, 5.3486], [-76.1736, 5.2603], [-76.142, 5.2334], [-76.1325, 5.1834], [-76.2039, 5.1728], [-76.2114, 5.1574], [-76.2367, 5.1551], [-76.2568, 5.12], [-76.2905, 5.1265], [-76.2975, 5.1789], [-76.319, 5.2061], [-76.3591, 5.1975], [-76.388, 5.2115], [-76.3997, 5.2671], [-76.4406, 5.2665], [-76.452, 5.2491], [-76.4886, 5.2598], [-76.4897, 5.2138], [-76.5124, 5.2274], [-76.5357, 5.2175], [-76.5363, 5.2395], [-76.6042, 5.1923], [-76.6285, 5.215], [-76.6101, 5.2068], [-76.5859, 5.2198], [-76.5981, 5.2735], [-76.5739, 5.2676], [-76.5308, 5.2876], [-76.4919, 5.3391], [-76.4128, 5.346], [-76.4046, 5.3592], [-76.3923, 5.3483], [-76.3539, 5.371], [-76.3443, 5.3444], [-76.3211, 5.3342], [-76.2831, 5.3609], [-76.2395, 5.3597], [-76.1912, 5.4146], [-76.2114, 5.3486]]]}}, {"type": "Feature", "properties": {"code": "27800", "dep": "Chocó", "mun": "Unguía", "pob2024": 14551, "pob2025": 14756, "pob2026": 14997, "pobcab": 4289, "pobres": 10262, "viv": 3708, "ppv": 2.84, "lat": 8.1052, "lng": -77.0855, "sev": "ninguna", "sevf": "reportado", "dens": 12.2, "vivPrec": 0.067}, "geometry": {"type": "Polygon", "coordinates": [[[-77.0933, 8.3065], [-77.0782, 8.3179], [-77.0361, 8.2526], [-76.9802, 8.2553], [-76.9493, 8.1723], [-76.9556, 8.1227], [-76.9383, 8.068], [-76.9599, 8.0369], [-76.9945, 8.0234], [-77.0001, 7.9584], [-77.0214, 7.9488], [-77.0123, 7.9338], [-77.0286, 7.8849], [-77.0665, 7.8481], [-77.0942, 7.8779], [-77.0826, 7.8989], [-77.0985, 7.9224], [-77.1744, 7.9507], [-77.1656, 7.9742], [-77.2336, 8.025], [-77.2175, 8.0878], [-77.2268, 8.1364], [-77.2571, 8.1578], [-77.2512, 8.1875], [-77.3016, 8.2718], [-77.2472, 8.2704], [-77.2216, 8.2936], [-77.1566, 8.2843], [-77.1248, 8.3495], [-77.0933, 8.3065]]]}}, {"type": "Feature", "properties": {"code": "27810", "dep": "Chocó", "mun": "Unión Panamericana", "pob2024": 7492, "pob2025": 7627, "pob2026": 7736, "pobcab": 3089, "pobres": 4403, "viv": 1997, "ppv": 2.84, "lat": 5.299, "lng": -76.6428, "sev": "alta", "sevf": "reportado", "dens": 42.1, "vivPrec": 0.034}, "geometry": {"type": "Polygon", "coordinates": [[[-76.6771, 5.4043], [-76.6338, 5.3803], [-76.6271, 5.3507], [-76.614, 5.3576], [-76.5849, 5.2586], [-76.5864, 5.2194], [-76.6101, 5.2068], [-76.6285, 5.215], [-76.672, 5.1851], [-76.6862, 5.196], [-76.6806, 5.215], [-76.7088, 5.238], [-76.6754, 5.2396], [-76.6518, 5.2716], [-76.7259, 5.3264], [-76.6552, 5.3332], [-76.6907, 5.3957], [-76.6771, 5.4043]]]}}, {"type": "Feature", "properties": {"code": "63001", "dep": "Quindío", "mun": "Armenia", "pob2024": 309474, "pob2025": 310817, "pob2026": 311959, "pobcab": 301707, "pobres": 7767, "viv": 93611, "ppv": 2.77, "lat": 4.5064, "lng": -75.7366, "sev": "critica", "sevf": "reportado", "dens": 2544.7, "vivPrec": 0.027}, "geometry": {"type": "Polygon", "coordinates": [[[-75.6406, 4.5846], [-75.643, 4.5538], [-75.6822, 4.5238], [-75.7189, 4.4484], [-75.7746, 4.3951], [-75.7834, 4.4094], [-75.7576, 4.4476], [-75.7768, 4.4497], [-75.7706, 4.4722], [-75.7428, 4.4891], [-75.7967, 4.4786], [-75.7682, 4.5344], [-75.6745, 4.5514], [-75.6406, 4.5846]]]}}, {"type": "Feature", "properties": {"code": "63111", "dep": "Quindío", "mun": "Buenavista", "pob2024": 3237, "pob2025": 3257, "pob2026": 3264, "pobcab": 1291, "pobres": 1946, "viv": 906, "ppv": 2.77, "lat": 4.3708, "lng": -75.7463, "sev": "baja", "sevf": "inferido", "dens": 84.2, "vivPrec": 0.05}, "geometry": {"type": "Polygon", "coordinates": [[[-75.7284, 4.4055], [-75.7174, 4.3434], [-75.7476, 4.334], [-75.7839, 4.3468], [-75.7569, 4.3949], [-75.7284, 4.4055]]]}}, {"type": "Feature", "properties": {"code": "63130", "dep": "Quindío", "mun": "Calarcá", "pob2024": 76398, "pob2025": 76735, "pob2026": 77048, "pobcab": 59740, "pobres": 16658, "viv": 23385, "ppv": 2.77, "lat": 4.4528, "lng": -75.647, "sev": "baja", "sevf": "inferido", "dens": 345.9, "vivPrec": 0.058}, "geometry": {"type": "Polygon", "coordinates": [[[-75.6285, 4.5705], [-75.6111, 4.5655], [-75.6122, 4.5433], [-75.5557, 4.4721], [-75.5836, 4.4221], [-75.6088, 4.4336], [-75.6414, 4.4193], [-75.7096, 4.4215], [-75.7569, 4.3949], [-75.7552, 4.3782], [-75.7924, 4.3372], [-75.8031, 4.3961], [-75.7645, 4.3951], [-75.6822, 4.5238], [-75.6285, 4.5705]]]}}, {"type": "Feature", "properties": {"code": "63190", "dep": "Quindío", "mun": "Circasia", "pob2024": 29650, "pob2025": 29789, "pob2026": 29911, "pobcab": 22433, "pobres": 7217, "viv": 8814, "ppv": 2.77, "lat": 4.6191, "lng": -75.6591, "sev": "baja", "sevf": "inferido", "dens": 328.3, "vivPrec": 0.021}, "geometry": {"type": "Polygon", "coordinates": [[[-75.5991, 4.6747], [-75.5958, 4.6589], [-75.6699, 4.5541], [-75.7403, 4.5395], [-75.7377, 4.5432], [-75.7182, 4.5507], [-75.7382, 4.5766], [-75.7301, 4.5865], [-75.6584, 4.6518], [-75.5991, 4.6747]]]}}, {"type": "Feature", "properties": {"code": "63212", "dep": "Quindío", "mun": "Córdoba", "pob2024": 5934, "pob2025": 5954, "pob2026": 5963, "pobcab": 3610, "pobres": 2324, "viv": 1914, "ppv": 2.77, "lat": 4.3933, "lng": -75.6511, "sev": "baja", "sevf": "inferido", "dens": 63.8, "vivPrec": 0.053}, "geometry": {"type": "Polygon", "coordinates": [[[-75.5987, 4.4303], [-75.5791, 4.4169], [-75.5922, 4.3616], [-75.6319, 4.381], [-75.6519, 4.3604], [-75.6874, 4.3575], [-75.7279, 4.4055], [-75.7096, 4.4215], [-75.5987, 4.4303]]]}}, {"type": "Feature", "properties": {"code": "63272", "dep": "Quindío", "mun": "Filandia", "pob2024": 12654, "pob2025": 12729, "pob2026": 12790, "pobcab": 7182, "pobres": 5472, "viv": 3867, "ppv": 2.77, "lat": 4.6785, "lng": -75.6586, "sev": "baja", "sevf": "inferido", "dens": 118.8, "vivPrec": 0.029}, "geometry": {"type": "Polygon", "coordinates": [[[-75.6598, 4.6999], [-75.5645, 4.7011], [-75.6584, 4.6518], [-75.6976, 4.6064], [-75.7068, 4.625], [-75.732, 4.6085], [-75.7472, 4.6182], [-75.7407, 4.6547], [-75.7072, 4.6571], [-75.7136, 4.7138], [-75.6598, 4.6999]]]}}, {"type": "Feature", "properties": {"code": "63302", "dep": "Quindío", "mun": "Génova", "pob2024": 7773, "pob2025": 7809, "pob2026": 7861, "pobcab": 4485, "pobres": 3288, "viv": 2305, "ppv": 2.77, "lat": 4.1846, "lng": -75.7497, "sev": "baja", "sevf": "inferido", "dens": 26.4, "vivPrec": 0.02}, "geometry": {"type": "Polygon", "coordinates": [[[-75.7941, 4.3096], [-75.7454, 4.2833], [-75.7561, 4.2465], [-75.7265, 4.2299], [-75.6803, 4.2399], [-75.6542, 4.2136], [-75.6935, 4.1357], [-75.7331, 4.1141], [-75.755, 4.0757], [-75.8392, 4.0985], [-75.842, 4.1556], [-75.7875, 4.293], [-75.7941, 4.3096]]]}}, {"type": "Feature", "properties": {"code": "63401", "dep": "Quindío", "mun": "La Tebaida", "pob2024": 35189, "pob2025": 35343, "pob2026": 35448, "pobcab": 31895, "pobres": 3294, "viv": 9693, "ppv": 2.77, "lat": 4.4311, "lng": -75.83, "sev": "baja", "sevf": "inferido", "dens": 393.7, "vivPrec": 0.045}, "geometry": {"type": "Polygon", "coordinates": [[[-75.7456, 4.4898], [-75.7706, 4.4722], [-75.7768, 4.4497], [-75.7576, 4.4476], [-75.7834, 4.4094], [-75.7746, 4.3951], [-75.8943, 4.4155], [-75.8881, 4.4467], [-75.8655, 4.4624], [-75.8196, 4.4518], [-75.7972, 4.4785], [-75.7456, 4.4898]]]}}, {"type": "Feature", "properties": {"code": "63470", "dep": "Quindío", "mun": "Montenegro", "pob2024": 38460, "pob2025": 38619, "pob2026": 38783, "pobcab": 31846, "pobres": 6614, "viv": 11547, "ppv": 2.77, "lat": 4.501, "lng": -75.8258, "sev": "baja", "sevf": "inferido", "dens": 258.0, "vivPrec": 0.071}, "geometry": {"type": "Polygon", "coordinates": [[[-75.7379, 4.5764], [-75.7182, 4.5506], [-75.7651, 4.5381], [-75.7847, 4.4841], [-75.8141, 4.4542], [-75.8786, 4.4603], [-75.8706, 4.5179], [-75.8813, 4.5276], [-75.8637, 4.5781], [-75.7822, 4.5624], [-75.7379, 4.5764]]]}}, {"type": "Feature", "properties": {"code": "63548", "dep": "Quindío", "mun": "Pijao", "pob2024": 5452, "pob2025": 5487, "pob2026": 5511, "pobcab": 3148, "pobres": 2304, "viv": 1579, "ppv": 2.77, "lat": 4.2975, "lng": -75.6834, "sev": "baja", "sevf": "inferido", "dens": 21.9, "vivPrec": 0.033}, "geometry": {"type": "Polygon", "coordinates": [[[-75.6256, 4.3802], [-75.5922, 4.3616], [-75.5962, 4.2827], [-75.642, 4.2476], [-75.6464, 4.2262], [-75.6881, 4.2411], [-75.7265, 4.2299], [-75.7561, 4.2465], [-75.745, 4.2822], [-75.7968, 4.3123], [-75.7897, 4.3417], [-75.7181, 4.3428], [-75.7162, 4.377], [-75.6874, 4.3575], [-75.6256, 4.3802]]]}}, {"type": "Feature", "properties": {"code": "63594", "dep": "Quindío", "mun": "Quimbaya", "pob2024": 32040, "pob2025": 32175, "pob2026": 32309, "pobcab": 26275, "pobres": 5765, "viv": 9597, "ppv": 2.77, "lat": 4.6116, "lng": -75.8003, "sev": "baja", "sevf": "inferido", "dens": 240.0, "vivPrec": 0.057}, "geometry": {"type": "Polygon", "coordinates": [[[-75.8221, 4.6635], [-75.7407, 4.6547], [-75.7472, 4.6182], [-75.7294, 4.6084], [-75.7068, 4.625], [-75.6995, 4.6063], [-75.7725, 4.5638], [-75.8697, 4.5759], [-75.865, 4.6148], [-75.8221, 4.6635]]]}}, {"type": "Feature", "properties": {"code": "63690", "dep": "Quindío", "mun": "Salento", "pob2024": 9787, "pob2025": 9846, "pob2026": 9881, "pobcab": 4173, "pobres": 5614, "viv": 2836, "ppv": 2.77, "lat": 4.5888, "lng": -75.5575, "sev": "baja", "sevf": "inferido", "dens": 28.2, "vivPrec": 0.098}, "geometry": {"type": "Polygon", "coordinates": [[[-75.3849, 4.7097], [-75.4215, 4.6586], [-75.421, 4.6109], [-75.4689, 4.5983], [-75.515, 4.5556], [-75.5246, 4.4979], [-75.5605, 4.474], [-75.5677, 4.5006], [-75.6122, 4.5433], [-75.6111, 4.5655], [-75.6413, 4.5794], [-75.5958, 4.6591], [-75.6004, 4.6757], [-75.5541, 4.7028], [-75.5137, 4.6932], [-75.4794, 4.6632], [-75.4387, 4.6953], [-75.3849, 4.7097]]]}}, {"type": "Feature", "properties": {"code": "66001", "dep": "Risaralda", "mun": "Pereira", "pob2024": 482483, "pob2025": 482824, "pob2026": 482851, "pobcab": 407826, "pobres": 74657, "viv": 136803, "ppv": 2.79, "lat": 4.7858, "lng": -75.7797, "sev": "critica", "sevf": "reportado", "dens": 793.3, "vivPrec": 0.018}, "geometry": {"type": "Polygon", "coordinates": [[[-75.8093, 4.9019], [-75.7739, 4.8696], [-75.7384, 4.8909], [-75.7188, 4.8851], [-75.7151, 4.8201], [-75.651, 4.7975], [-75.6034, 4.7444], [-75.5347, 4.7003], [-75.4689, 4.7201], [-75.4088, 4.7928], [-75.3755, 4.8027], [-75.388, 4.7468], [-75.3779, 4.7296], [-75.4794, 4.6632], [-75.5458, 4.7015], [-75.6598, 4.6999], [-75.7029, 4.7214], [-75.754, 4.7099], [-75.8311, 4.7378], [-75.8561, 4.7278], [-75.8523, 4.7787], [-75.8886, 4.7547], [-75.9231, 4.7601], [-75.9175, 4.7945], [-75.9357, 4.8077], [-75.9108, 4.8166], [-75.9004, 4.8507], [-75.9148, 4.8821], [-75.8859, 4.8928], [-75.8422, 4.8701], [-75.8307, 4.9023], [-75.8093, 4.9019]]]}}, {"type": "Feature", "properties": {"code": "66045", "dep": "Risaralda", "mun": "Apía", "pob2024": 12637, "pob2025": 12645, "pob2026": 12663, "pobcab": 6028, "pobres": 6609, "viv": 3536, "ppv": 2.79, "lat": 5.1455, "lng": -75.9618, "sev": "baja", "sevf": "inferido", "dens": 84.3, "vivPrec": 0.03}, "geometry": {"type": "Polygon", "coordinates": [[[-75.9624, 5.2365], [-75.9286, 5.2266], [-75.9309, 5.1765], [-75.8838, 5.1305], [-75.9155, 5.0861], [-75.9246, 5.0408], [-75.9499, 5.0543], [-75.946, 5.0878], [-75.9729, 5.0924], [-76.0004, 5.1269], [-76.0605, 5.132], [-75.9885, 5.159], [-75.9767, 5.1783], [-75.9859, 5.2037], [-75.9624, 5.2365]]]}}, {"type": "Feature", "properties": {"code": "66075", "dep": "Risaralda", "mun": "Balboa", "pob2024": 6528, "pob2025": 6525, "pob2026": 6519, "pobcab": 1786, "pobres": 4742, "viv": 1574, "ppv": 2.79, "lat": 4.9358, "lng": -75.9438, "sev": "baja", "sevf": "inferido", "dens": 54.6, "vivPrec": 0.013}, "geometry": {"type": "Polygon", "coordinates": [[[-75.944, 4.9896], [-75.8798, 4.9193], [-75.8859, 4.8928], [-75.9428, 4.8567], [-75.9882, 4.8745], [-75.9941, 4.9522], [-75.9649, 4.9615], [-75.963, 4.986], [-75.944, 4.9896]]]}}, {"type": "Feature", "properties": {"code": "66088", "dep": "Risaralda", "mun": "Belén De Umbría", "pob2024": 25317, "pob2025": 25339, "pob2026": 25351, "pobcab": 13698, "pobres": 11619, "viv": 6807, "ppv": 2.79, "lat": 5.1884, "lng": -75.8689, "sev": "baja", "sevf": "inferido", "dens": 140.2, "vivPrec": 0.032}, "geometry": {"type": "Polygon", "coordinates": [[[-75.8681, 5.2739], [-75.8237, 5.2701], [-75.8038, 5.2266], [-75.8026, 5.1985], [-75.8449, 5.1056], [-75.9005, 5.1361], [-75.9313, 5.1783], [-75.9258, 5.2517], [-75.8681, 5.2739]]]}}, {"type": "Feature", "properties": {"code": "66170", "dep": "Risaralda", "mun": "Dosquebradas", "pob2024": 225939, "pob2025": 226152, "pob2026": 226214, "pobcab": 216096, "pobres": 9843, "viv": 63439, "ppv": 2.79, "lat": 4.8456, "lng": -75.6729, "sev": "alta", "sevf": "reportado", "dens": 3221.8, "vivPrec": 0.015}, "geometry": {"type": "Polygon", "coordinates": [[[-75.6877, 4.8844], [-75.6453, 4.8774], [-75.6233, 4.8246], [-75.6391, 4.7941], [-75.7156, 4.821], [-75.7121, 4.8665], [-75.6877, 4.8844]]]}}, {"type": "Feature", "properties": {"code": "66318", "dep": "Risaralda", "mun": "Guática", "pob2024": 12435, "pob2025": 12451, "pob2026": 12459, "pobcab": 4186, "pobres": 8249, "viv": 3949, "ppv": 2.79, "lat": 5.3308, "lng": -75.8156, "sev": "baja", "sevf": "inferido", "dens": 123.3, "vivPrec": 0.017}, "geometry": {"type": "Polygon", "coordinates": [[[-75.7579, 5.3867], [-75.7794, 5.3242], [-75.7483, 5.2843], [-75.8511, 5.2728], [-75.8544, 5.3374], [-75.8283, 5.3674], [-75.792, 5.3656], [-75.7579, 5.3867]]]}}, {"type": "Feature", "properties": {"code": "66383", "dep": "Risaralda", "mun": "La Celia", "pob2024": 7660, "pob2025": 7669, "pob2026": 7672, "pobcab": 3221, "pobres": 4439, "viv": 2099, "ppv": 2.79, "lat": 4.9737, "lng": -76.0013, "sev": "baja", "sevf": "inferido", "dens": 82.8, "vivPrec": 0.04}, "geometry": {"type": "Polygon", "coordinates": [[[-76.0233, 5.0241], [-75.9924, 5.0386], [-75.9846, 5.0181], [-75.9611, 5.0173], [-75.9456, 4.9898], [-75.963, 4.986], [-75.9649, 4.9615], [-75.9936, 4.9535], [-75.9902, 4.9131], [-76.0277, 4.9386], [-76.0491, 5.0072], [-76.0793, 5.0447], [-76.0233, 5.0241]]]}}, {"type": "Feature", "properties": {"code": "66400", "dep": "Risaralda", "mun": "La Virginia", "pob2024": 28540, "pob2025": 28555, "pob2026": 28559, "pobcab": 27926, "pobres": 614, "viv": 8598, "ppv": 2.79, "lat": 4.9085, "lng": -75.8509, "sev": "baja", "sevf": "inferido", "dens": 870.1, "vivPrec": 0.073}, "geometry": {"type": "Polygon", "coordinates": [[[-75.8604, 4.9347], [-75.8148, 4.9194], [-75.8422, 4.8701], [-75.8896, 4.8977], [-75.8604, 4.9347]]]}}, {"type": "Feature", "properties": {"code": "66440", "dep": "Risaralda", "mun": "Marsella", "pob2024": 17234, "pob2025": 17240, "pob2026": 17238, "pobcab": 9490, "pobres": 7744, "viv": 5273, "ppv": 2.79, "lat": 4.9574, "lng": -75.7528, "sev": "baja", "sevf": "inferido", "dens": 115.4, "vivPrec": 0.028}, "geometry": {"type": "Polygon", "coordinates": [[[-75.7148, 4.977], [-75.7177, 4.937], [-75.6858, 4.8977], [-75.705, 4.8697], [-75.7384, 4.8909], [-75.7739, 4.8696], [-75.805, 4.8885], [-75.8165, 4.9159], [-75.7922, 4.9378], [-75.7814, 5.0104], [-75.7468, 5.0468], [-75.7148, 4.977]]]}}, {"type": "Feature", "properties": {"code": "66456", "dep": "Risaralda", "mun": "Mistrató", "pob2024": 17557, "pob2025": 17587, "pob2026": 17578, "pobcab": 4667, "pobres": 12890, "viv": 4297, "ppv": 2.79, "lat": 5.3921, "lng": -75.9629, "sev": "baja", "sevf": "inferido", "dens": 31.1, "vivPrec": 0.325}, "geometry": {"type": "Polygon", "coordinates": [[[-76.0082, 5.5637], [-75.9593, 5.5051], [-75.9308, 5.5089], [-75.905, 5.4799], [-75.868, 5.4902], [-75.8506, 5.4125], [-75.8607, 5.3717], [-75.8331, 5.3611], [-75.8591, 5.3252], [-75.8511, 5.2728], [-75.8845, 5.2712], [-75.9243, 5.2458], [-75.9462, 5.256], [-75.961, 5.2893], [-75.9563, 5.3442], [-76.0618, 5.367], [-76.0881, 5.4465], [-76.0756, 5.4996], [-76.0854, 5.5343], [-76.037, 5.5672], [-76.0082, 5.5637]]]}}, {"type": "Feature", "properties": {"code": "66572", "dep": "Risaralda", "mun": "Pueblo Rico", "pob2024": 16789, "pob2025": 16792, "pob2026": 16814, "pobcab": 3507, "pobres": 13282, "viv": 3647, "ppv": 2.79, "lat": 5.2748, "lng": -76.0672, "sev": "baja", "sevf": "inferido", "dens": 27.4, "vivPrec": 0.168}, "geometry": {"type": "Polygon", "coordinates": [[[-76.0924, 5.4454], [-76.0618, 5.367], [-75.9563, 5.3442], [-75.961, 5.2893], [-75.9462, 5.256], [-75.9243, 5.2458], [-75.9308, 5.226], [-75.9635, 5.2362], [-75.9859, 5.2037], [-75.9767, 5.1783], [-75.9885, 5.159], [-76.0605, 5.132], [-76.1335, 5.185], [-76.142, 5.2334], [-76.1736, 5.2603], [-76.2114, 5.3486], [-76.1912, 5.4146], [-76.178, 5.4013], [-76.1525, 5.4076], [-76.0924, 5.4454]]]}}, {"type": "Feature", "properties": {"code": "66594", "dep": "Risaralda", "mun": "Quinchía", "pob2024": 27939, "pob2025": 27980, "pob2026": 27964, "pobcab": 8473, "pobres": 19466, "viv": 7299, "ppv": 2.79, "lat": 5.3558, "lng": -75.7199, "sev": "baja", "sevf": "inferido", "dens": 199.4, "vivPrec": 0.016}, "geometry": {"type": "Polygon", "coordinates": [[[-75.7388, 5.3976], [-75.6979, 5.3873], [-75.6482, 5.309], [-75.6662, 5.2685], [-75.6921, 5.2553], [-75.7351, 5.2645], [-75.7794, 5.3242], [-75.7388, 5.3976]]]}}, {"type": "Feature", "properties": {"code": "66682", "dep": "Risaralda", "mun": "Santa Rosa De Cabal", "pob2024": 79960, "pob2025": 80012, "pob2026": 80038, "pobcab": 67720, "pobres": 12240, "viv": 22108, "ppv": 2.79, "lat": 4.8508, "lng": -75.5398, "sev": "baja", "sevf": "inferido", "dens": 147.1, "vivPrec": 0.018}, "geometry": {"type": "Polygon", "coordinates": [[[-75.6231, 4.971], [-75.6171, 4.9314], [-75.5646, 4.9378], [-75.5375, 4.9165], [-75.4801, 4.9165], [-75.4269, 4.8164], [-75.3755, 4.8027], [-75.3954, 4.7864], [-75.4088, 4.7928], [-75.4687, 4.7202], [-75.5008, 4.7048], [-75.5347, 4.7003], [-75.5885, 4.7346], [-75.649, 4.7869], [-75.6233, 4.8243], [-75.6453, 4.8774], [-75.6863, 4.8816], [-75.7177, 4.9372], [-75.7142, 4.9578], [-75.666, 4.9427], [-75.6231, 4.971]]]}}, {"type": "Feature", "properties": {"code": "66687", "dep": "Risaralda", "mun": "Santuario", "pob2024": 12861, "pob2025": 12868, "pob2026": 12873, "pobcab": 6931, "pobres": 5930, "viv": 3830, "ppv": 2.79, "lat": 4.9928, "lng": -75.9227, "sev": "baja", "sevf": "inferido", "dens": 67.4, "vivPrec": 0.028}, "geometry": {"type": "Polygon", "coordinates": [[[-76.0555, 5.129], [-76.0004, 5.127], [-75.9729, 5.0924], [-75.946, 5.0878], [-75.9497, 5.054], [-75.9041, 5.024], [-75.8922, 4.9615], [-75.8607, 4.9421], [-75.8725, 4.9141], [-75.9903, 5.0379], [-76.024, 5.0241], [-76.077, 5.0472], [-76.0555, 5.129]]]}}, {"type": "Feature", "properties": {"code": "76001", "dep": "Valle del Cauca", "mun": "Cali", "pob2024": 2283846, "pob2025": 2285099, "pob2026": 2284775, "pobcab": 2238220, "pobres": 45626, "viv": 598155, "ppv": 2.81, "lat": 3.4163, "lng": -76.5802, "sev": "critica", "sevf": "reportado", "dens": 4056.3, "vivPrec": 0.037}, "geometry": {"type": "Polygon", "coordinates": [[[-76.5918, 3.5469], [-76.545, 3.4957], [-76.51, 3.4905], [-76.4912, 3.5061], [-76.4614, 3.4364], [-76.4714, 3.378], [-76.4588, 3.3248], [-76.4686, 3.3106], [-76.4784, 3.3193], [-76.478, 3.2936], [-76.4903, 3.3041], [-76.4987, 3.2734], [-76.5586, 3.2809], [-76.5816, 3.3086], [-76.6475, 3.2973], [-76.6627, 3.3145], [-76.696, 3.3112], [-76.7018, 3.3585], [-76.6877, 3.3963], [-76.7056, 3.442], [-76.6859, 3.4635], [-76.646, 3.4697], [-76.6176, 3.5301], [-76.5918, 3.5469]]]}}, {"type": "Feature", "properties": {"code": "76036", "dep": "Valle del Cauca", "mun": "Andalucía", "pob2024": 23029, "pob2025": 23054, "pob2026": 23094, "pobcab": 18226, "pobres": 4803, "viv": 6928, "ppv": 2.81, "lat": 4.1487, "lng": -76.1665, "sev": "sindato", "sevf": "inferido", "dens": 208.5, "vivPrec": 0.08}, "geometry": {"type": "Polygon", "coordinates": [[[-76.1496, 4.1815], [-76.0709, 4.0882], [-76.0836, 4.0664], [-76.1116, 4.0669], [-76.1366, 4.1158], [-76.1718, 4.1193], [-76.1788, 4.1353], [-76.2435, 4.1621], [-76.2487, 4.1855], [-76.235, 4.214], [-76.1496, 4.1815]]]}}, {"type": "Feature", "properties": {"code": "76041", "dep": "Valle del Cauca", "mun": "Ansermanuevo", "pob2024": 18345, "pob2025": 18399, "pob2026": 18421, "pobcab": 11345, "pobres": 7000, "viv": 5389, "ppv": 2.81, "lat": 4.7904, "lng": -76.0504, "sev": "sindato", "sevf": "inferido", "dens": 60.1, "vivPrec": 0.122}, "geometry": {"type": "Polygon", "coordinates": [[[-76.0156, 4.8875], [-75.9699, 4.8598], [-75.9142, 4.8735], [-75.9004, 4.8513], [-75.9124, 4.815], [-75.9442, 4.7958], [-75.9613, 4.8062], [-75.9544, 4.7819], [-75.9724, 4.7845], [-75.9785, 4.7433], [-76.0196, 4.692], [-76.1166, 4.7406], [-76.1472, 4.785], [-76.1277, 4.8172], [-76.1378, 4.8436], [-76.1198, 4.8289], [-76.0145, 4.8563], [-76.0156, 4.8875]]]}}, {"type": "Feature", "properties": {"code": "76054", "dep": "Valle del Cauca", "mun": "Argelia", "pob2024": 5550, "pob2025": 5558, "pob2026": 5580, "pobcab": 3085, "pobres": 2465, "viv": 1732, "ppv": 2.81, "lat": 4.7126, "lng": -76.1361, "sev": "sindato", "sevf": "inferido", "dens": 61.1, "vivPrec": 0.051}, "geometry": {"type": "Polygon", "coordinates": [[[-76.1166, 4.7406], [-76.0882, 4.7355], [-76.0921, 4.7027], [-76.1227, 4.6512], [-76.1641, 4.6662], [-76.1924, 4.6546], [-76.1794, 4.7224], [-76.1482, 4.7492], [-76.1472, 4.785], [-76.1166, 4.7406]]]}}, {"type": "Feature", "properties": {"code": "76111", "dep": "Valle del Cauca", "mun": "Guadalajara De Buga", "pob2024": 133690, "pob2025": 133907, "pob2026": 134040, "pobcab": 114610, "pobres": 19080, "viv": 36510, "ppv": 2.81, "lat": 3.8632, "lng": -76.1118, "sev": "sindato", "sevf": "inferido", "dens": 161.9, "vivPrec": 0.032}, "geometry": {"type": "Polygon", "coordinates": [[[-76.3161, 3.9928], [-76.2775, 3.9608], [-76.249, 3.959], [-76.2278, 3.9317], [-76.1546, 3.9257], [-76.147, 3.9048], [-76.116, 3.9159], [-76.1009, 3.9566], [-76.0727, 3.9005], [-75.9981, 3.8941], [-75.8734, 3.9265], [-75.8498, 3.8892], [-75.8616, 3.8739], [-75.8529, 3.8525], [-75.8928, 3.8132], [-75.9201, 3.7404], [-75.9493, 3.7135], [-75.9743, 3.7222], [-75.9936, 3.7551], [-76.0306, 3.7456], [-76.0753, 3.7649], [-76.0966, 3.8124], [-76.1404, 3.8323], [-76.1806, 3.8051], [-76.2095, 3.8345], [-76.2476, 3.836], [-76.2593, 3.8515], [-76.2952, 3.8021], [-76.3645, 3.7979], [-76.383, 3.821], [-76.3789, 3.844], [-76.3392, 3.9049], [-76.3478, 3.9142], [-76.3285, 3.9184], [-76.3397, 3.9298], [-76.3206, 3.938], [-76.3161, 3.9928]]]}}, {"type": "Feature", "properties": {"code": "76113", "dep": "Valle del Cauca", "mun": "Bugalagrande", "pob2024": 26121, "pob2025": 26208, "pob2026": 26273, "pobcab": 13962, "pobres": 12159, "viv": 7082, "ppv": 2.81, "lat": 4.1979, "lng": -76.0786, "sev": "sindato", "sevf": "inferido", "dens": 65.8, "vivPrec": 0.022}, "geometry": {"type": "Polygon", "coordinates": [[[-76.0927, 4.2454], [-76.0371, 4.2563], [-75.9704, 4.2137], [-75.9553, 4.1694], [-76.001, 4.102], [-76.067, 4.0838], [-76.1501, 4.182], [-76.235, 4.214], [-76.2277, 4.2476], [-76.2101, 4.2479], [-76.207, 4.2905], [-76.1792, 4.3153], [-76.1757, 4.3026], [-76.1714, 4.3174], [-76.0927, 4.2454]]]}}, {"type": "Feature", "properties": {"code": "76122", "dep": "Valle del Cauca", "mun": "Caicedonia", "pob2024": 29596, "pob2025": 29646, "pob2026": 29670, "pobcab": 24691, "pobres": 4905, "viv": 8953, "ppv": 2.81, "lat": 4.3234, "lng": -75.8332, "sev": "sindato", "sevf": "inferido", "dens": 177.2, "vivPrec": 0.126}, "geometry": {"type": "Polygon", "coordinates": [[[-75.812, 4.4043], [-75.7898, 4.3526], [-75.7875, 4.293], [-75.8397, 4.199], [-75.8606, 4.2085], [-75.8557, 4.2392], [-75.8943, 4.2943], [-75.8548, 4.3635], [-75.87, 4.4046], [-75.812, 4.4043]]]}}, {"type": "Feature", "properties": {"code": "76126", "dep": "Valle del Cauca", "mun": "Calima", "pob2024": 19420, "pob2025": 19461, "pob2026": 19510, "pobcab": 12662, "pobres": 6758, "viv": 5350, "ppv": 2.81, "lat": 3.9413, "lng": -76.6413, "sev": "sindato", "sevf": "inferido", "dens": 24.5, "vivPrec": 0.065}, "geometry": {"type": "Polygon", "coordinates": [[[-76.5175, 4.0662], [-76.4467, 4.0447], [-76.4081, 4.0543], [-76.4187, 3.9894], [-76.3968, 3.9762], [-76.4466, 3.9177], [-76.4605, 3.8651], [-76.5092, 3.8774], [-76.5603, 3.8483], [-76.6078, 3.8639], [-76.6438, 3.8439], [-76.6846, 3.864], [-76.7138, 3.8422], [-76.815, 3.8754], [-76.8884, 3.9929], [-76.8415, 4.0375], [-76.8233, 4.0325], [-76.8153, 4.007], [-76.7942, 4.0114], [-76.7677, 3.9887], [-76.6833, 3.9649], [-76.6246, 4.0149], [-76.5894, 3.9941], [-76.5903, 3.9701], [-76.5381, 4.0151], [-76.5415, 4.0437], [-76.5175, 4.0662]]]}}, {"type": "Feature", "properties": {"code": "76130", "dep": "Valle del Cauca", "mun": "Candelaria", "pob2024": 94103, "pob2025": 94202, "pob2026": 94199, "pobcab": 26551, "pobres": 67552, "viv": 24179, "ppv": 2.81, "lat": 3.3721, "lng": -76.3889, "sev": "sindato", "sevf": "inferido", "dens": 317.4, "vivPrec": 0.023}, "geometry": {"type": "Polygon", "coordinates": [[[-76.2811, 3.4702], [-76.3181, 3.3889], [-76.3329, 3.3919], [-76.3001, 3.3662], [-76.3177, 3.3025], [-76.3405, 3.3128], [-76.3434, 3.2815], [-76.4604, 3.3289], [-76.4714, 3.378], [-76.4601, 3.4284], [-76.4758, 3.4519], [-76.3747, 3.4504], [-76.2811, 3.4702]]]}}, {"type": "Feature", "properties": {"code": "76147", "dep": "Valle del Cauca", "mun": "Cartago", "pob2024": 143281, "pob2025": 143522, "pob2026": 143659, "pobcab": 138625, "pobres": 4656, "viv": 39493, "ppv": 2.81, "lat": 4.7305, "lng": -75.9238, "sev": "media", "sevf": "reportado", "dens": 577.2, "vivPrec": 0.032}, "geometry": {"type": "Polygon", "coordinates": [[[-75.9205, 4.7999], [-75.9293, 4.7687], [-75.9082, 4.7521], [-75.848, 4.7765], [-75.857, 4.7089], [-75.8503, 4.6827], [-75.8351, 4.6883], [-75.8223, 4.6718], [-75.8656, 4.6128], [-75.8754, 4.6313], [-75.9349, 4.6548], [-76.0166, 4.666], [-76.0156, 4.6996], [-75.9672, 4.7671], [-75.9724, 4.7845], [-75.9544, 4.7819], [-75.9613, 4.8062], [-75.9205, 4.7999]]]}}, {"type": "Feature", "properties": {"code": "76243", "dep": "Valle del Cauca", "mun": "El Águila", "pob2024": 9157, "pob2025": 9185, "pob2026": 9176, "pobcab": 2752, "pobres": 6405, "viv": 2427, "ppv": 2.81, "lat": 4.9284, "lng": -76.0557, "sev": "media", "sevf": "reportado", "dens": 48.8, "vivPrec": 0.054}, "geometry": {"type": "Polygon", "coordinates": [[[-76.0793, 5.0447], [-76.0491, 5.0072], [-76.0277, 4.9386], [-75.9876, 4.9114], [-75.9877, 4.8862], [-76.0229, 4.8837], [-76.0145, 4.8563], [-76.1217, 4.8292], [-76.1378, 4.8436], [-76.1141, 4.894], [-76.1307, 4.9108], [-76.0988, 4.9183], [-76.0968, 5.0318], [-76.0793, 5.0447]]]}}, {"type": "Feature", "properties": {"code": "76246", "dep": "Valle del Cauca", "mun": "El Cairo", "pob2024": 7056, "pob2025": 7059, "pob2026": 7083, "pobcab": 3520, "pobres": 3536, "viv": 2105, "ppv": 2.81, "lat": 4.7726, "lng": -76.2139, "sev": "sindato", "sevf": "inferido", "dens": 32.9, "vivPrec": 0.029}, "geometry": {"type": "Polygon", "coordinates": [[[-76.1361, 4.8362], [-76.1277, 4.8172], [-76.1482, 4.7492], [-76.1794, 4.7224], [-76.1945, 4.6818], [-76.2313, 4.675], [-76.2975, 4.6986], [-76.2857, 4.7124], [-76.3121, 4.7506], [-76.2612, 4.7945], [-76.2306, 4.8021], [-76.2115, 4.8294], [-76.1361, 4.8362]]]}}, {"type": "Feature", "properties": {"code": "76248", "dep": "Valle del Cauca", "mun": "El Cerrito", "pob2024": 57960, "pob2025": 58042, "pob2026": 58093, "pobcab": 37477, "pobres": 20483, "viv": 17071, "ppv": 2.81, "lat": 3.6833, "lng": -76.3246, "sev": "sindato", "sevf": "inferido", "dens": 131.2, "vivPrec": 0.042}, "geometry": {"type": "Polygon", "coordinates": [[[-76.0306, 3.7456], [-75.9936, 3.7551], [-75.9556, 3.7136], [-75.9613, 3.7036], [-76.0073, 3.7162], [-76.0769, 3.6289], [-76.1106, 3.6149], [-76.3407, 3.611], [-76.4252, 3.6787], [-76.3975, 3.7622], [-76.3135, 3.7005], [-76.2312, 3.6881], [-76.2012, 3.6625], [-76.1825, 3.6943], [-76.124, 3.6878], [-76.0893, 3.7638], [-76.0306, 3.7456]]]}}, {"type": "Feature", "properties": {"code": "76250", "dep": "Valle del Cauca", "mun": "El Dovio", "pob2024": 9220, "pob2025": 9246, "pob2026": 9246, "pobcab": 5919, "pobres": 3301, "viv": 2741, "ppv": 2.81, "lat": 4.5628, "lng": -76.295, "sev": "sindato", "sevf": "inferido", "dens": 39.2, "vivPrec": 0.065}, "geometry": {"type": "Polygon", "coordinates": [[[-76.2719, 4.5827], [-76.2445, 4.6143], [-76.2225, 4.6061], [-76.2471, 4.5604], [-76.2247, 4.5638], [-76.2167, 4.5256], [-76.187, 4.5467], [-76.1747, 4.5373], [-76.1689, 4.5083], [-76.2055, 4.5155], [-76.2112, 4.4752], [-76.239, 4.4697], [-76.2791, 4.4978], [-76.3403, 4.4826], [-76.4036, 4.5345], [-76.3813, 4.5596], [-76.3446, 4.5618], [-76.301, 4.6542], [-76.3007, 4.6478], [-76.2719, 4.5827]]]}}, {"type": "Feature", "properties": {"code": "76275", "dep": "Valle del Cauca", "mun": "Florida", "pob2024": 58522, "pob2025": 58566, "pob2026": 58600, "pobcab": 41508, "pobres": 17014, "viv": 16655, "ppv": 2.81, "lat": 3.296, "lng": -76.1937, "sev": "sindato", "sevf": "inferido", "dens": 145.7, "vivPrec": 0.05}, "geometry": {"type": "Polygon", "coordinates": [[[-76.0993, 3.3878], [-76.0554, 3.3484], [-76.0378, 3.301], [-76.0505, 3.282], [-76.0386, 3.2515], [-76.0676, 3.2105], [-76.1564, 3.236], [-76.1913, 3.2271], [-76.2293, 3.2768], [-76.348, 3.291], [-76.3405, 3.3128], [-76.3177, 3.3025], [-76.3001, 3.3662], [-76.266, 3.3525], [-76.2336, 3.3737], [-76.192, 3.3554], [-76.1474, 3.386], [-76.0993, 3.3878]]]}}, {"type": "Feature", "properties": {"code": "76306", "dep": "Valle del Cauca", "mun": "Ginebra", "pob2024": 25104, "pob2025": 25186, "pob2026": 25232, "pobcab": 11938, "pobres": 13166, "viv": 6031, "ppv": 2.81, "lat": 3.7473, "lng": -76.2062, "sev": "sindato", "sevf": "inferido", "dens": 93.4, "vivPrec": 0.011}, "geometry": {"type": "Polygon", "coordinates": [[[-76.1048, 3.8195], [-76.0809, 3.7918], [-76.124, 3.6878], [-76.1825, 3.6943], [-76.2018, 3.6625], [-76.2312, 3.6881], [-76.3207, 3.7067], [-76.3237, 3.7348], [-76.3023, 3.7597], [-76.2216, 3.7679], [-76.1426, 3.8314], [-76.1048, 3.8195]]]}}, {"type": "Feature", "properties": {"code": "76318", "dep": "Valle del Cauca", "mun": "Guacarí", "pob2024": 35513, "pob2025": 35614, "pob2026": 35691, "pobcab": 22465, "pobres": 13048, "viv": 9935, "ppv": 2.81, "lat": 3.7801, "lng": -76.2953, "sev": "sindato", "sevf": "inferido", "dens": 218.5, "vivPrec": 0.075}, "geometry": {"type": "Polygon", "coordinates": [[[-76.2562, 3.848], [-76.2095, 3.8345], [-76.1801, 3.8009], [-76.2216, 3.7679], [-76.3023, 3.7597], [-76.3237, 3.7348], [-76.3207, 3.7074], [-76.3834, 3.74], [-76.4009, 3.7826], [-76.3851, 3.7775], [-76.3742, 3.8104], [-76.3638, 3.7978], [-76.2999, 3.8005], [-76.2562, 3.848]]]}}, {"type": "Feature", "properties": {"code": "76020", "dep": "Valle del Cauca", "mun": "Alcalá", "pob2024": 14890, "pob2025": 14929, "pob2026": 14940, "pobcab": 11141, "pobres": 3749, "viv": 4124, "ppv": 2.81, "lat": 4.6928, "lng": -75.8158, "sev": "sindato", "sevf": "inferido", "dens": 238.8, "vivPrec": 0.076}, "geometry": {"type": "Polygon", "coordinates": [[[-75.8326, 4.7193], [-75.8264, 4.7023], [-75.7097, 4.6792], [-75.7072, 4.6571], [-75.8274, 4.6605], [-75.8275, 4.6834], [-75.8503, 4.6827], [-75.8572, 4.7095], [-75.8326, 4.7193]]]}}, {"type": "Feature", "properties": {"code": "76497", "dep": "Valle del Cauca", "mun": "Obando", "pob2024": 12640, "pob2025": 12663, "pob2026": 12671, "pobcab": 9706, "pobres": 2934, "viv": 3648, "ppv": 2.81, "lat": 4.5997, "lng": -75.9421, "sev": "sindato", "sevf": "inferido", "dens": 58.9, "vivPrec": 0.03}, "geometry": {"type": "Polygon", "coordinates": [[[-75.8708, 4.6253], [-75.8598, 4.5952], [-75.8808, 4.5312], [-75.9368, 4.5285], [-75.943, 4.5441], [-75.9642, 4.5312], [-76.039, 4.5777], [-76.0203, 4.5892], [-76.0243, 4.6058], [-76.0109, 4.6042], [-76.0368, 4.6199], [-76.0166, 4.666], [-75.8708, 4.6253]]]}}, {"type": "Feature", "properties": {"code": "76520", "dep": "Valle del Cauca", "mun": "Palmira", "pob2024": 359549, "pob2025": 359888, "pob2026": 359988, "pobcab": 286707, "pobres": 72842, "viv": 103070, "ppv": 2.81, "lat": 3.5816, "lng": -76.2241, "sev": "sindato", "sevf": "inferido", "dens": 357.7, "vivPrec": 0.068}, "geometry": {"type": "Polygon", "coordinates": [[[-75.9798, 3.7174], [-75.9504, 3.674], [-75.9937, 3.6384], [-75.984, 3.5599], [-76.0263, 3.4916], [-76.0287, 3.4526], [-76.0614, 3.4567], [-76.0728, 3.4783], [-76.1082, 3.4908], [-76.1256, 3.4749], [-76.2514, 3.4841], [-76.3747, 3.4504], [-76.4758, 3.4519], [-76.4917, 3.5166], [-76.488, 3.5363], [-76.4682, 3.54], [-76.4881, 3.5561], [-76.4619, 3.5601], [-76.461, 3.6247], [-76.426, 3.6949], [-76.4211, 3.6853], [-76.4251, 3.6786], [-76.3809, 3.6519], [-76.3603, 3.6195], [-76.2809, 3.6032], [-76.2425, 3.6216], [-76.1711, 3.609], [-76.0895, 3.6212], [-76.0089, 3.715], [-75.9798, 3.7174]]]}}, {"type": "Feature", "properties": {"code": "76563", "dep": "Valle del Cauca", "mun": "Pradera", "pob2024": 49416, "pob2025": 49487, "pob2026": 49497, "pobcab": 43396, "pobres": 6020, "viv": 12670, "ppv": 2.81, "lat": 3.4254, "lng": -76.1728, "sev": "sindato", "sevf": "inferido", "dens": 138.5, "vivPrec": 0.023}, "geometry": {"type": "Polygon", "coordinates": [[[-76.0982, 3.4842], [-76.0369, 3.4527], [-76.043, 3.3981], [-76.0292, 3.3891], [-76.0602, 3.3549], [-76.1026, 3.3896], [-76.1474, 3.386], [-76.1907, 3.3556], [-76.2336, 3.3737], [-76.2703, 3.3524], [-76.3328, 3.3865], [-76.3181, 3.3889], [-76.2881, 3.4769], [-76.0982, 3.4842]]]}}, {"type": "Feature", "properties": {"code": "76606", "dep": "Valle del Cauca", "mun": "Restrepo", "pob2024": 16541, "pob2025": 16596, "pob2026": 16647, "pobcab": 11245, "pobres": 5296, "viv": 4225, "ppv": 2.81, "lat": 3.7978, "lng": -76.5358, "sev": "sindato", "sevf": "inferido", "dens": 121.4, "vivPrec": 0.055}, "geometry": {"type": "Polygon", "coordinates": [[[-76.479, 3.8659], [-76.4898, 3.8549], [-76.4675, 3.8307], [-76.497, 3.7648], [-76.5442, 3.743], [-76.611, 3.7567], [-76.5637, 3.8466], [-76.5092, 3.8774], [-76.479, 3.8659]]]}}, {"type": "Feature", "properties": {"code": "76616", "dep": "Valle del Cauca", "mun": "Riofrío", "pob2024": 15991, "pob2025": 16014, "pob2026": 16026, "pobcab": 7907, "pobres": 8084, "viv": 4772, "ppv": 2.81, "lat": 4.1006, "lng": -76.394, "sev": "sindato", "sevf": "inferido", "dens": 51.9, "vivPrec": 0.025}, "geometry": {"type": "Polygon", "coordinates": [[[-76.288, 4.2033], [-76.2453, 4.1809], [-76.2461, 4.1497], [-76.2788, 4.1064], [-76.2878, 4.1241], [-76.3138, 4.0949], [-76.3129, 4.0779], [-76.2949, 4.0745], [-76.3061, 4.0605], [-76.3558, 4.0533], [-76.3644, 4.0226], [-76.4062, 4.0045], [-76.417, 4.0121], [-76.4086, 4.0551], [-76.4467, 4.0447], [-76.4987, 4.0624], [-76.4483, 4.1615], [-76.3498, 4.1591], [-76.3259, 4.1946], [-76.288, 4.2033]]]}}, {"type": "Feature", "properties": {"code": "76622", "dep": "Valle del Cauca", "mun": "Roldanillo", "pob2024": 37773, "pob2025": 37806, "pob2026": 37831, "pobcab": 29153, "pobres": 8620, "viv": 10376, "ppv": 2.81, "lat": 4.4402, "lng": -76.1727, "sev": "media", "sevf": "reportado", "dens": 160.2, "vivPrec": 0.016}, "geometry": {"type": "Polygon", "coordinates": [[[-76.2027, 4.5138], [-76.1663, 4.5128], [-76.1561, 4.4777], [-76.0994, 4.5069], [-76.0656, 4.4928], [-76.0881, 4.4735], [-76.0702, 4.4374], [-76.0844, 4.4429], [-76.1042, 4.4004], [-76.1275, 4.4033], [-76.1417, 4.3796], [-76.1316, 4.3715], [-76.1881, 4.3729], [-76.2563, 4.4026], [-76.2456, 4.4292], [-76.2802, 4.456], [-76.2778, 4.4751], [-76.2112, 4.4752], [-76.2027, 4.5138]]]}}, {"type": "Feature", "properties": {"code": "76670", "dep": "Valle del Cauca", "mun": "San Pedro", "pob2024": 18136, "pob2025": 18196, "pob2026": 18228, "pobcab": 8624, "pobres": 9512, "viv": 4764, "ppv": 2.81, "lat": 3.9839, "lng": -76.2216, "sev": "sindato", "sevf": "inferido", "dens": 89.7, "vivPrec": 0.019}, "geometry": {"type": "Polygon", "coordinates": [[[-76.2458, 4.0321], [-76.1779, 4.0344], [-76.1797, 4.0172], [-76.1618, 4.0226], [-76.1349, 3.9747], [-76.1004, 3.9576], [-76.1157, 3.9162], [-76.1476, 3.9049], [-76.155, 3.9259], [-76.2278, 3.9317], [-76.2492, 3.9592], [-76.2816, 3.9633], [-76.3127, 3.9931], [-76.3113, 4.0193], [-76.2968, 4.0156], [-76.3092, 4.0466], [-76.2458, 4.0321]]]}}, {"type": "Feature", "properties": {"code": "76736", "dep": "Valle del Cauca", "mun": "Sevilla", "pob2024": 43794, "pob2025": 43890, "pob2026": 43949, "pobcab": 33740, "pobres": 10054, "viv": 12892, "ppv": 2.81, "lat": 4.1629, "lng": -75.872, "sev": "sindato", "sevf": "inferido", "dens": 81.5, "vivPrec": 0.098}, "geometry": {"type": "Polygon", "coordinates": [[[-75.8693, 4.4099], [-75.8548, 4.3635], [-75.8943, 4.2943], [-75.8557, 4.2392], [-75.8606, 4.2085], [-75.8395, 4.199], [-75.8249, 4.2148], [-75.8194, 4.2024], [-75.843, 4.1508], [-75.839, 4.0976], [-75.7524, 4.0774], [-75.7376, 4.0554], [-75.7765, 4.004], [-75.7953, 4.0051], [-75.7915, 3.971], [-75.8228, 3.9046], [-75.819, 3.9407], [-75.8464, 3.9871], [-75.8603, 4.0695], [-75.9012, 4.0844], [-75.909, 4.1311], [-75.8979, 4.1474], [-75.9133, 4.175], [-75.9562, 4.1775], [-75.9757, 4.2204], [-76.0379, 4.2519], [-76.021, 4.3037], [-75.9947, 4.3004], [-75.9792, 4.3274], [-75.9558, 4.3219], [-75.9402, 4.3869], [-75.8693, 4.4099]]]}}, {"type": "Feature", "properties": {"code": "76823", "dep": "Valle del Cauca", "mun": "Toro", "pob2024": 14995, "pob2025": 15013, "pob2026": 15034, "pobcab": 10561, "pobres": 4434, "viv": 4031, "ppv": 2.81, "lat": 4.6609, "lng": -76.0715, "sev": "sindato", "sevf": "inferido", "dens": 85.3, "vivPrec": 0.036}, "geometry": {"type": "Polygon", "coordinates": [[[-76.0853, 4.7357], [-76.0726, 4.7148], [-76.0158, 4.6927], [-76.0368, 4.6199], [-76.0109, 4.6042], [-76.039, 4.5831], [-76.0713, 4.5957], [-76.1377, 4.5574], [-76.1613, 4.6014], [-76.1319, 4.6291], [-76.0853, 4.7357]]]}}, {"type": "Feature", "properties": {"code": "76828", "dep": "Valle del Cauca", "mun": "Trujillo", "pob2024": 19748, "pob2025": 19790, "pob2026": 19807, "pobcab": 9755, "pobres": 9993, "viv": 5251, "ppv": 2.81, "lat": 4.2387, "lng": -76.336, "sev": "sindato", "sevf": "inferido", "dens": 64.2, "vivPrec": 0.045}, "geometry": {"type": "Polygon", "coordinates": [[[-76.2467, 4.306], [-76.2101, 4.2479], [-76.2371, 4.2291], [-76.2277, 4.2075], [-76.2399, 4.1852], [-76.2616, 4.1791], [-76.2889, 4.2042], [-76.3259, 4.1946], [-76.3498, 4.1591], [-76.4483, 4.1615], [-76.455, 4.2295], [-76.4066, 4.3], [-76.2957, 4.2987], [-76.2784, 4.2741], [-76.2467, 4.306]]]}}, {"type": "Feature", "properties": {"code": "76834", "dep": "Valle del Cauca", "mun": "Tuluá", "pob2024": 232775, "pob2025": 233385, "pob2026": 233831, "pobcab": 191151, "pobres": 41624, "viv": 63937, "ppv": 2.81, "lat": 4.0347, "lng": -76.042, "sev": "sindato", "sevf": "inferido", "dens": 256.0, "vivPrec": 0.073}, "geometry": {"type": "Polygon", "coordinates": [[[-75.9363, 4.1834], [-75.8986, 4.1499], [-75.9012, 4.0844], [-75.8605, 4.0699], [-75.8464, 3.9871], [-75.819, 3.9408], [-75.8232, 3.9045], [-75.8498, 3.8892], [-75.878, 3.9273], [-75.9981, 3.8941], [-76.0729, 3.9005], [-76.0896, 3.9512], [-76.1349, 3.9747], [-76.1618, 4.0226], [-76.2971, 4.0467], [-76.3081, 4.0692], [-76.2953, 4.0752], [-76.3138, 4.0791], [-76.3004, 4.1143], [-76.2869, 4.124], [-76.281, 4.1049], [-76.2483, 4.1366], [-76.2447, 4.1683], [-76.228, 4.1465], [-76.1298, 4.1106], [-76.1115, 4.0668], [-76.0836, 4.0664], [-76.0709, 4.0882], [-76.001, 4.102], [-75.9363, 4.1834]]]}}, {"type": "Feature", "properties": {"code": "76845", "dep": "Valle del Cauca", "mun": "Ulloa", "pob2024": 5831, "pob2025": 5847, "pob2026": 5861, "pobcab": 2799, "pobres": 3032, "viv": 1490, "ppv": 2.81, "lat": 4.7077, "lng": -75.7707, "sev": "sindato", "sevf": "inferido", "dens": 139.3, "vivPrec": 0.014}, "geometry": {"type": "Polygon", "coordinates": [[[-75.7894, 4.7161], [-75.7136, 4.7138], [-75.7097, 4.6792], [-75.8264, 4.7023], [-75.8329, 4.7196], [-75.8566, 4.7132], [-75.851, 4.734], [-75.7894, 4.7161]]]}}, {"type": "Feature", "properties": {"code": "76863", "dep": "Valle del Cauca", "mun": "Versalles", "pob2024": 7461, "pob2025": 7475, "pob2026": 7475, "pobcab": 4501, "pobres": 2960, "viv": 2111, "ppv": 2.81, "lat": 4.6109, "lng": -76.1944, "sev": "sindato", "sevf": "inferido", "dens": 37.2, "vivPrec": 0.009}, "geometry": {"type": "Polygon", "coordinates": [[[-76.2953, 4.6978], [-76.2313, 4.675], [-76.1945, 4.6818], [-76.1924, 4.6546], [-76.1641, 4.6662], [-76.1227, 4.6512], [-76.1613, 4.6014], [-76.1526, 4.5638], [-76.2167, 4.5256], [-76.2247, 4.5638], [-76.2471, 4.5604], [-76.2232, 4.6069], [-76.2445, 4.6143], [-76.2713, 4.5826], [-76.2912, 4.6076], [-76.3047, 4.6381], [-76.2953, 4.6978]]]}}, {"type": "Feature", "properties": {"code": "76869", "dep": "Valle del Cauca", "mun": "Vijes", "pob2024": 13291, "pob2025": 13324, "pob2026": 13326, "pobcab": 8558, "pobres": 4733, "viv": 3412, "ppv": 2.81, "lat": 3.7569, "lng": -76.4825, "sev": "sindato", "sevf": "inferido", "dens": 116.8, "vivPrec": 0.01}, "geometry": {"type": "Polygon", "coordinates": [[[-76.4614, 3.8263], [-76.4339, 3.8237], [-76.4556, 3.7877], [-76.4454, 3.7464], [-76.4214, 3.7292], [-76.4009, 3.7403], [-76.426, 3.681], [-76.5038, 3.6966], [-76.5369, 3.7489], [-76.497, 3.7648], [-76.4614, 3.8263]]]}}, {"type": "Feature", "properties": {"code": "76890", "dep": "Valle del Cauca", "mun": "Yotoco", "pob2024": 16468, "pob2025": 16466, "pob2026": 16513, "pobcab": 8867, "pobres": 7601, "viv": 4896, "ppv": 2.81, "lat": 3.885, "lng": -76.4037, "sev": "sindato", "sevf": "inferido", "dens": 50.2, "vivPrec": 0.021}, "geometry": {"type": "Polygon", "coordinates": [[[-76.2964, 4.061], [-76.3099, 4.04], [-76.2971, 4.0147], [-76.311, 4.0197], [-76.3028, 4.0006], [-76.3252, 3.9897], [-76.3102, 3.9875], [-76.3241, 3.9828], [-76.3206, 3.938], [-76.3328, 3.9419], [-76.3285, 3.9184], [-76.3478, 3.9142], [-76.3392, 3.9049], [-76.3789, 3.844], [-76.374, 3.8014], [-76.3888, 3.7966], [-76.3851, 3.7775], [-76.4006, 3.7846], [-76.4009, 3.7403], [-76.4226, 3.7296], [-76.4551, 3.7706], [-76.4339, 3.8237], [-76.4805, 3.835], [-76.4899, 3.8554], [-76.4605, 3.8651], [-76.4466, 3.9177], [-76.3968, 3.9762], [-76.4185, 3.9889], [-76.4157, 4.0098], [-76.3644, 4.0226], [-76.3558, 4.0533], [-76.2964, 4.061]]]}}, {"type": "Feature", "properties": {"code": "76892", "dep": "Valle del Cauca", "mun": "Yumbo", "pob2024": 108869, "pob2025": 108895, "pob2026": 108812, "pobcab": 94639, "pobres": 14230, "viv": 31267, "ppv": 2.81, "lat": 3.5924, "lng": -76.5173, "sev": "sindato", "sevf": "inferido", "dens": 472.1, "vivPrec": 0.043}, "geometry": {"type": "Polygon", "coordinates": [[[-76.5015, 3.6957], [-76.426, 3.681], [-76.461, 3.6247], [-76.4619, 3.5601], [-76.4874, 3.5592], [-76.4686, 3.5363], [-76.488, 3.5363], [-76.4912, 3.5061], [-76.51, 3.4905], [-76.5456, 3.4961], [-76.5929, 3.5483], [-76.553, 3.6375], [-76.5015, 3.6957]]]}}, {"type": "Feature", "properties": {"code": "76895", "dep": "Valle del Cauca", "mun": "Zarzal", "pob2024": 43194, "pob2025": 43252, "pob2026": 43269, "pobcab": 33243, "pobres": 9951, "viv": 13211, "ppv": 2.81, "lat": 4.356, "lng": -76.0465, "sev": "sindato", "sevf": "inferido", "dens": 117.4, "vivPrec": 0.082}, "geometry": {"type": "Polygon", "coordinates": [[[-76.0395, 4.4662], [-75.9997, 4.4358], [-75.996, 4.4059], [-75.9634, 4.4202], [-75.9581, 4.4022], [-75.9281, 4.4013], [-75.8956, 4.4261], [-75.8778, 4.4096], [-75.9403, 4.3869], [-75.9558, 4.3219], [-75.9792, 4.3274], [-75.9947, 4.3004], [-76.021, 4.3037], [-76.0386, 4.2546], [-76.0927, 4.2454], [-76.1714, 4.3174], [-76.1505, 4.3411], [-76.162, 4.3485], [-76.1383, 4.353], [-76.1524, 4.3591], [-76.1475, 4.3744], [-76.1303, 4.3726], [-76.1417, 4.3796], [-76.1277, 4.403], [-76.1042, 4.4004], [-76.0844, 4.4429], [-76.0795, 4.4427], [-76.0739, 4.4332], [-76.0696, 4.4559], [-76.0395, 4.4662]]]}}, {"type": "Feature", "properties": {"code": "76403", "dep": "Valle del Cauca", "mun": "La Victoria", "pob2024": 12501, "pob2025": 12511, "pob2026": 12516, "pobcab": 9597, "pobres": 2904, "viv": 3815, "ppv": 2.81, "lat": 4.4982, "lng": -75.971, "sev": "sindato", "sevf": "inferido", "dens": 47.2, "vivPrec": 0.017}, "geometry": {"type": "Polygon", "coordinates": [[[-75.9642, 4.5312], [-75.9429, 4.5441], [-75.9369, 4.5285], [-75.901, 4.5384], [-75.8719, 4.5246], [-75.8814, 4.4678], [-75.8655, 4.4548], [-75.8881, 4.4467], [-75.9036, 4.4131], [-75.9518, 4.4012], [-75.9639, 4.4202], [-75.996, 4.4059], [-75.9997, 4.4358], [-76.0381, 4.4655], [-76.0696, 4.4559], [-76.0878, 4.4717], [-76.0412, 4.5275], [-76.0502, 4.5371], [-76.031, 4.5691], [-75.9642, 4.5312]]]}}, {"type": "Feature", "properties": {"code": "76400", "dep": "Valle del Cauca", "mun": "La Unión", "pob2024": 34776, "pob2025": 34788, "pob2026": 34788, "pobcab": 28106, "pobres": 6670, "viv": 9799, "ppv": 2.81, "lat": 4.5271, "lng": -76.1126, "sev": "sindato", "sevf": "inferido", "dens": 287.7, "vivPrec": 0.043}, "geometry": {"type": "Polygon", "coordinates": [[[-76.0652, 4.5958], [-76.0308, 4.5709], [-76.0621, 4.4958], [-76.0994, 4.5069], [-76.1561, 4.4777], [-76.1843, 4.5472], [-76.151, 4.5751], [-76.1371, 4.5574], [-76.0652, 4.5958]]]}}, {"type": "Feature", "properties": {"code": "76377", "dep": "Valle del Cauca", "mun": "La Cumbre", "pob2024": 17342, "pob2025": 17397, "pob2026": 17446, "pobcab": 3617, "pobres": 13725, "viv": 4593, "ppv": 2.81, "lat": 3.7241, "lng": -76.5844, "sev": "sindato", "sevf": "inferido", "dens": 67.9, "vivPrec": 0.022}, "geometry": {"type": "Polygon", "coordinates": [[[-76.561, 3.8482], [-76.6111, 3.7569], [-76.5347, 3.7491], [-76.5062, 3.6992], [-76.5281, 3.6521], [-76.5543, 3.6353], [-76.592, 3.547], [-76.5971, 3.5516], [-76.5957, 3.5666], [-76.6139, 3.5852], [-76.6187, 3.6348], [-76.649, 3.6324], [-76.648, 3.7644], [-76.6448, 3.7854], [-76.5826, 3.8429], [-76.5927, 3.863], [-76.561, 3.8482]]]}}, {"type": "Feature", "properties": {"code": "76364", "dep": "Valle del Cauca", "mun": "Jamundí", "pob2024": 181478, "pob2025": 181942, "pob2026": 182290, "pobcab": 142808, "pobres": 38670, "viv": 41041, "ppv": 2.81, "lat": 3.2148, "lng": -76.621, "sev": "sindato", "sevf": "inferido", "dens": 288.5, "vivPrec": 0.015}, "geometry": {"type": "Polygon", "coordinates": [[[-76.7009, 3.3552], [-76.6953, 3.311], [-76.6627, 3.3145], [-76.6475, 3.2973], [-76.5816, 3.3086], [-76.5442, 3.278], [-76.529, 3.2871], [-76.4987, 3.2734], [-76.4927, 3.2895], [-76.4748, 3.2872], [-76.4872, 3.2825], [-76.4608, 3.2663], [-76.4617, 3.2527], [-76.4756, 3.2573], [-76.4621, 3.2492], [-76.4773, 3.2326], [-76.4654, 3.2275], [-76.4982, 3.2021], [-76.4871, 3.1738], [-76.5078, 3.1573], [-76.5008, 3.144], [-76.5198, 3.1497], [-76.5178, 3.1345], [-76.5327, 3.1357], [-76.5156, 3.1184], [-76.5309, 3.1236], [-76.5559, 3.0995], [-76.5729, 3.1288], [-76.5988, 3.1051], [-76.593, 3.0936], [-76.6107, 3.0913], [-76.6298, 3.1284], [-76.6663, 3.098], [-76.7442, 3.1356], [-76.7392, 3.1861], [-76.7835, 3.2469], [-76.7513, 3.2734], [-76.7348, 3.33], [-76.7009, 3.3552]]]}}, {"type": "Feature", "properties": {"code": "76100", "dep": "Valle del Cauca", "mun": "Bolívar", "pob2024": 16472, "pob2025": 16496, "pob2026": 16501, "pobcab": 5103, "pobres": 11369, "viv": 4538, "ppv": 2.81, "lat": 4.3634, "lng": -76.3544, "sev": "sindato", "sevf": "inferido", "dens": 22.1, "vivPrec": 0.061}, "geometry": {"type": "Polygon", "coordinates": [[[-76.2758, 4.4933], [-76.2802, 4.456], [-76.2456, 4.4292], [-76.2563, 4.4026], [-76.138, 4.3585], [-76.1624, 4.348], [-76.1503, 4.3416], [-76.1736, 4.3034], [-76.1792, 4.3153], [-76.207, 4.2905], [-76.1979, 4.2848], [-76.2126, 4.2597], [-76.2387, 4.2755], [-76.2467, 4.306], [-76.2784, 4.2741], [-76.2957, 4.2987], [-76.3718, 4.3043], [-76.407, 4.2997], [-76.455, 4.2295], [-76.5059, 4.2519], [-76.5279, 4.3235], [-76.5615, 4.3682], [-76.5533, 4.4014], [-76.4821, 4.4141], [-76.4185, 4.4477], [-76.3827, 4.4929], [-76.3316, 4.4801], [-76.2758, 4.4933]]]}}, {"type": "Feature", "properties": {"code": "76233", "dep": "Valle del Cauca", "mun": "Dagua", "pob2024": 49793, "pob2025": 49864, "pob2026": 49924, "pobcab": 12632, "pobres": 37161, "viv": 13886, "ppv": 2.81, "lat": 3.6498, "lng": -76.7276, "sev": "sindato", "sevf": "inferido", "dens": 54.3, "vivPrec": 0.04}, "geometry": {"type": "Polygon", "coordinates": [[[-76.7138, 3.8422], [-76.6846, 3.864], [-76.6438, 3.8439], [-76.5943, 3.8634], [-76.5827, 3.8438], [-76.6448, 3.7854], [-76.6407, 3.6918], [-76.6522, 3.6726], [-76.649, 3.6324], [-76.6187, 3.6348], [-76.5951, 3.5474], [-76.6176, 3.5301], [-76.6283, 3.4879], [-76.6506, 3.4668], [-76.69, 3.4613], [-76.7124, 3.4238], [-76.7487, 3.4345], [-76.8132, 3.5394], [-76.855, 3.5493], [-76.8518, 3.5901], [-76.8905, 3.6063], [-76.8667, 3.6316], [-76.824, 3.6254], [-76.793, 3.6647], [-76.8224, 3.7235], [-76.8163, 3.747], [-76.7675, 3.7789], [-76.815, 3.8754], [-76.7138, 3.8422]]]}}, {"type": "Feature", "properties": {"code": "76109", "dep": "Valle del Cauca", "mun": "Buenaventura", "pob2024": 324130, "pob2025": 324644, "pob2026": 324923, "pobcab": 251047, "pobres": 73083, "viv": 73015, "ppv": 2.81, "lat": 3.6673, "lng": -76.9808, "sev": "alta", "sevf": "reportado", "dens": 51.5, "vivPrec": 0.019}, "geometry": {"type": "MultiPolygon", "coordinates": [[[[-77.215, 4.156], [-77.205, 4.1727], [-77.1596, 4.1837], [-77.1163, 4.1333], [-77.12, 4.1166], [-77.1045, 4.1076], [-77.0861, 4.1226], [-77.068, 4.096], [-77.0089, 4.096], [-76.9971, 4.1195], [-76.9761, 4.1222], [-76.915, 4.098], [-76.8595, 4.0298], [-76.8884, 3.9929], [-76.7675, 3.7791], [-76.8163, 3.747], [-76.8224, 3.7235], [-76.7936, 3.6829], [-76.799, 3.6503], [-76.824, 3.6254], [-76.8668, 3.6315], [-76.8905, 3.6063], [-76.8518, 3.5901], [-76.855, 3.5493], [-76.8134, 3.5397], [-76.778, 3.4675], [-76.7599, 3.4654], [-76.7484, 3.4343], [-76.7059, 3.4278], [-76.6882, 3.3879], [-76.7395, 3.3221], [-76.7582, 3.2631], [-76.7821, 3.2502], [-76.7885, 3.2182], [-76.908, 3.2014], [-76.9155, 3.1495], [-76.9385, 3.114], [-76.9719, 3.1188], [-76.9968, 3.1548], [-77.0984, 3.186], [-77.1296, 3.1612], [-77.1593, 3.1743], [-77.2345, 3.1081], [-77.2447, 3.1263], [-77.2523, 3.1152], [-77.2616, 3.1351], [-77.2883, 3.1386], [-77.2799, 3.1594], [-77.3172, 3.1742], [-77.3462, 3.1402], [-77.3658, 3.1465], [-77.3821, 3.2034], [-77.4291, 3.2537], [-77.4707, 3.237], [-77.4621, 3.2267], [-77.4771, 3.2096], [-77.5041, 3.2223], [-77.4987, 3.234], [-77.5496, 3.2298], [-77.4799, 3.3231], [-77.4274, 3.368], [-77.4132, 3.3556], [-77.3646, 3.448], [-77.3557, 3.4103], [-77.3325, 3.4266], [-77.337, 3.4487], [-77.3707, 3.4751], [-77.3004, 3.57], [-77.2359, 3.5774], [-77.1957, 3.6107], [-77.1892, 3.6532], [-77.1656, 3.6447], [-77.1654, 3.6848], [-77.1891, 3.6814], [-77.197, 3.7208], [-77.197, 3.7505], [-77.166, 3.7575], [-77.1818, 3.8094], [-77.1349, 3.8048], [-77.1063, 3.8488], [-77.054, 3.8677], [-77.0867, 3.9052], [-77.0975, 3.8753], [-77.1327, 3.8725], [-77.1816, 3.8317], [-77.2496, 3.828], [-77.3027, 3.8615], [-77.2863, 3.8953], [-77.3208, 3.9025], [-77.3169, 3.9518], [-77.29, 3.9791], [-77.2236, 3.9961], [-77.1985, 4.0306], [-77.1946, 4.0528], [-77.2287, 4.0591], [-77.2323, 4.0814], [-77.2616, 4.0604], [-77.2686, 4.077], [-77.3061, 4.044], [-77.3244, 3.9727], [-77.3584, 3.9265], [-77.434, 4.0102], [-77.4496, 4.0385], [-77.4289, 4.0931], [-77.4358, 4.1458], [-77.3903, 4.1485], [-77.353, 4.1975], [-77.3055, 4.1665], [-77.2803, 4.221], [-77.2579, 4.2347], [-77.215, 4.156]]], [[[-77.2381, 4.0405], [-77.2264, 4.0399], [-77.2326, 4.0314], [-77.232, 4.0373], [-77.2362, 4.0323], [-77.2381, 4.0405]]]]}}]}